{
"type": "FeatureCollection",
"features": [
{ "type": "Feature", "properties": { "COD_ESTADO": "24", "ESTADO": "VARGAS" }, "geometry": { "type": "Polygon", "coordinates": [ [ [ -66.964966, 10.553568 ], [ -66.965836, 10.553165 ], [ -66.966995, 10.552983 ], [ -66.968452, 10.552893 ], [ -66.969452, 10.553077 ], [ -66.971161, 10.553537 ], [ -66.971992, 10.553928 ], [ -66.972847, 10.554296 ], [ -66.974487, 10.555306 ], [ -66.975296, 10.555996 ], [ -66.976265, 10.556663 ], [ -66.977333, 10.557237 ], [ -66.978859, 10.558179 ], [ -66.979363, 10.558639 ], [ -66.980011, 10.559007 ], [ -66.980957, 10.559305 ], [ -66.981934, 10.559811 ], [ -66.982811, 10.560386 ], [ -66.983849, 10.560799 ], [ -66.984520, 10.561098 ], [ -66.985535, 10.561696 ], [ -66.987251, 10.562684 ], [ -66.988106, 10.563120 ], [ -66.989029, 10.563534 ], [ -66.989792, 10.563832 ], [ -66.991013, 10.564476 ], [ -66.991852, 10.564797 ], [ -66.992332, 10.564890 ], [ -66.993027, 10.565097 ], [ -66.993835, 10.565489 ], [ -66.994644, 10.565489 ], [ -66.995667, 10.565902 ], [ -66.996269, 10.566087 ], [ -66.997192, 10.566271 ], [ -66.997864, 10.566593 ], [ -66.998398, 10.566662 ], [ -66.999138, 10.566731 ], [ -66.999901, 10.566847 ], [ -66.999985, 10.568022 ], [ -67.000847, 10.567811 ], [ -67.001686, 10.567553 ], [ -67.002151, 10.567346 ], [ -67.002686, 10.567159 ], [ -67.003426, 10.566856 ], [ -67.003937, 10.566532 ], [ -67.004517, 10.565954 ], [ -67.005463, 10.565191 ], [ -67.006210, 10.564658 ], [ -67.006927, 10.563989 ], [ -67.007576, 10.563111 ], [ -67.007728, 10.562694 ], [ -67.007805, 10.562490 ], [ -67.008682, 10.562095 ], [ -67.008965, 10.562668 ], [ -67.009598, 10.563585 ], [ -67.009972, 10.564043 ], [ -67.010513, 10.564591 ], [ -67.010956, 10.565187 ], [ -67.011749, 10.565897 ], [ -67.012146, 10.566400 ], [ -67.012749, 10.566789 ], [ -67.013168, 10.567178 ], [ -67.013733, 10.567566 ], [ -67.014481, 10.567953 ], [ -67.014992, 10.568204 ], [ -67.015457, 10.568409 ], [ -67.016129, 10.568521 ], [ -67.016640, 10.568563 ], [ -67.017174, 10.568492 ], [ -67.017807, 10.568443 ], [ -67.018455, 10.568256 ], [ -67.018921, 10.568024 ], [ -67.019501, 10.567698 ], [ -67.019989, 10.567351 ], [ -67.020706, 10.566566 ], [ -67.021118, 10.565576 ], [ -67.021271, 10.563643 ], [ -67.021408, 10.562861 ], [ -67.021431, 10.561895 ], [ -67.021591, 10.561136 ], [ -67.021957, 10.560145 ], [ -67.022369, 10.559132 ], [ -67.022736, 10.558049 ], [ -67.023155, 10.557311 ], [ -67.023888, 10.555399 ], [ -67.024307, 10.554616 ], [ -67.024857, 10.553717 ], [ -67.025215, 10.552954 ], [ -67.025200, 10.552381 ], [ -67.025017, 10.551829 ], [ -67.024544, 10.551257 ], [ -67.024124, 10.550798 ], [ -67.023384, 10.550527 ], [ -67.022896, 10.550460 ], [ -67.021934, 10.550143 ], [ -67.021355, 10.549686 ], [ -67.020675, 10.549390 ], [ -67.019791, 10.548957 ], [ -67.019142, 10.548409 ], [ -67.018738, 10.547537 ], [ -67.018486, 10.547102 ], [ -67.018341, 10.546665 ], [ -67.018196, 10.545976 ], [ -67.018059, 10.545470 ], [ -67.017845, 10.544115 ], [ -67.017769, 10.543057 ], [ -67.018272, 10.541814 ], [ -67.018875, 10.541328 ], [ -67.019806, 10.540266 ], [ -67.020500, 10.539503 ], [ -67.021195, 10.538926 ], [ -67.022308, 10.538367 ], [ -67.023377, 10.537857 ], [ -67.024025, 10.537463 ], [ -67.024880, 10.537114 ], [ -67.026001, 10.536855 ], [ -67.027046, 10.536574 ], [ -67.027573, 10.536409 ], [ -67.028091, 10.536248 ], [ -67.030159, 10.535846 ], [ -67.030807, 10.535752 ], [ -67.031967, 10.535677 ], [ -67.033066, 10.535717 ], [ -67.033691, 10.535714 ], [ -67.034340, 10.535665 ], [ -67.035576, 10.535315 ], [ -67.036499, 10.534920 ], [ -67.038101, 10.534636 ], [ -67.039124, 10.534216 ], [ -67.040077, 10.533683 ], [ -67.040611, 10.533312 ], [ -67.041008, 10.532989 ], [ -67.041725, 10.532434 ], [ -67.042282, 10.532041 ], [ -67.043510, 10.531459 ], [ -67.044762, 10.530970 ], [ -67.046921, 10.529856 ], [ -67.047783, 10.529530 ], [ -67.048523, 10.529089 ], [ -67.049004, 10.528051 ], [ -67.048981, 10.527546 ], [ -67.048973, 10.526420 ], [ -67.049019, 10.525637 ], [ -67.049110, 10.524763 ], [ -67.049568, 10.524094 ], [ -67.050751, 10.523536 ], [ -67.051193, 10.522338 ], [ -67.051254, 10.521533 ], [ -67.051949, 10.520817 ], [ -67.052765, 10.520675 ], [ -67.053414, 10.520672 ], [ -67.053925, 10.520739 ], [ -67.054741, 10.520573 ], [ -67.055809, 10.520084 ], [ -67.056458, 10.519599 ], [ -67.056946, 10.519045 ], [ -67.057289, 10.518537 ], [ -67.057800, 10.518074 ], [ -67.058449, 10.517680 ], [ -67.058937, 10.517402 ], [ -67.059471, 10.517124 ], [ -67.059936, 10.516846 ], [ -67.060974, 10.516173 ], [ -67.060860, 10.515346 ], [ -67.060341, 10.514475 ], [ -67.059570, 10.513582 ], [ -67.058891, 10.512665 ], [ -67.058212, 10.511887 ], [ -67.058327, 10.510829 ], [ -67.058159, 10.509496 ], [ -67.057594, 10.508718 ], [ -67.057015, 10.508099 ], [ -67.056496, 10.507435 ], [ -67.055962, 10.506931 ], [ -67.055305, 10.505854 ], [ -67.055000, 10.505188 ], [ -67.054901, 10.504694 ], [ -67.054832, 10.504315 ], [ -67.054901, 10.503394 ], [ -67.055199, 10.502381 ], [ -67.055496, 10.501530 ], [ -67.056000, 10.500216 ], [ -67.056389, 10.499271 ], [ -67.056740, 10.498189 ], [ -67.056961, 10.496808 ], [ -67.057121, 10.496118 ], [ -67.057533, 10.494988 ], [ -67.057831, 10.493815 ], [ -67.058037, 10.493054 ], [ -67.058151, 10.492065 ], [ -67.058220, 10.491122 ], [ -67.058144, 10.490433 ], [ -67.057930, 10.489790 ], [ -67.057251, 10.489127 ], [ -67.056274, 10.488533 ], [ -67.055580, 10.488261 ], [ -67.054970, 10.488149 ], [ -67.054459, 10.487991 ], [ -67.052857, 10.487631 ], [ -67.052384, 10.487103 ], [ -67.051964, 10.486601 ], [ -67.051872, 10.485865 ], [ -67.051704, 10.484946 ], [ -67.051720, 10.483912 ], [ -67.052071, 10.483335 ], [ -67.052643, 10.482573 ], [ -67.053154, 10.481996 ], [ -67.053543, 10.481327 ], [ -67.053940, 10.480520 ], [ -67.054077, 10.479646 ], [ -67.054062, 10.476150 ], [ -67.054146, 10.474931 ], [ -67.054138, 10.473873 ], [ -67.054230, 10.473391 ], [ -67.054459, 10.472652 ], [ -67.054596, 10.471686 ], [ -67.054802, 10.471271 ], [ -67.055084, 10.470902 ], [ -67.055641, 10.470509 ], [ -67.056801, 10.469882 ], [ -67.057335, 10.469672 ], [ -67.057915, 10.469394 ], [ -67.058937, 10.469549 ], [ -67.059563, 10.469248 ], [ -67.060005, 10.469062 ], [ -67.060745, 10.468666 ], [ -67.061462, 10.467996 ], [ -67.062225, 10.467256 ], [ -67.063179, 10.466470 ], [ -67.063873, 10.466283 ], [ -67.064567, 10.466279 ], [ -67.066406, 10.465948 ], [ -67.067520, 10.465436 ], [ -67.068428, 10.464834 ], [ -67.068863, 10.464463 ], [ -67.069374, 10.464277 ], [ -67.070053, 10.464251 ], [ -67.070679, 10.464133 ], [ -67.071121, 10.464039 ], [ -67.072327, 10.464032 ], [ -67.073006, 10.464375 ], [ -67.073845, 10.465082 ], [ -67.074654, 10.465125 ], [ -67.075584, 10.464798 ], [ -67.076767, 10.464355 ], [ -67.077957, 10.464487 ], [ -67.078468, 10.464738 ], [ -67.078957, 10.465011 ], [ -67.080101, 10.465557 ], [ -67.080658, 10.465854 ], [ -67.081917, 10.465985 ], [ -67.082748, 10.465613 ], [ -67.083839, 10.465055 ], [ -67.084282, 10.464870 ], [ -67.085419, 10.464818 ], [ -67.086861, 10.464167 ], [ -67.088226, 10.463745 ], [ -67.088791, 10.463766 ], [ -67.089600, 10.463991 ], [ -67.090813, 10.464192 ], [ -67.091576, 10.463775 ], [ -67.092735, 10.463263 ], [ -67.093132, 10.463008 ], [ -67.093735, 10.462889 ], [ -67.094315, 10.462335 ], [ -67.094757, 10.461895 ], [ -67.095291, 10.461870 ], [ -67.095802, 10.462327 ], [ -67.096497, 10.462370 ], [ -67.097969, 10.462799 ], [ -67.098198, 10.462856 ], [ -67.099228, 10.463115 ], [ -67.101662, 10.461814 ], [ -67.102241, 10.461651 ], [ -67.102913, 10.461256 ], [ -67.104027, 10.460768 ], [ -67.104767, 10.460189 ], [ -67.104813, 10.460174 ], [ -67.105187, 10.460049 ], [ -67.106163, 10.460090 ], [ -67.107231, 10.460521 ], [ -67.107933, 10.461046 ], [ -67.108284, 10.461367 ], [ -67.109428, 10.462004 ], [ -67.110169, 10.462185 ], [ -67.111305, 10.461696 ], [ -67.112145, 10.461324 ], [ -67.112976, 10.460998 ], [ -67.113838, 10.460626 ], [ -67.114304, 10.460623 ], [ -67.114952, 10.460803 ], [ -67.115395, 10.461169 ], [ -67.116028, 10.461418 ], [ -67.116539, 10.461646 ], [ -67.117195, 10.462010 ], [ -67.117729, 10.462146 ], [ -67.118423, 10.462095 ], [ -67.118866, 10.462116 ], [ -67.119560, 10.461883 ], [ -67.120216, 10.461512 ], [ -67.121071, 10.461208 ], [ -67.121582, 10.460908 ], [ -67.122002, 10.460721 ], [ -67.122994, 10.460325 ], [ -67.123970, 10.459860 ], [ -67.124878, 10.459672 ], [ -67.125320, 10.459623 ], [ -67.125992, 10.459274 ], [ -67.126945, 10.458740 ], [ -67.127403, 10.458370 ], [ -67.128311, 10.457745 ], [ -67.128632, 10.457329 ], [ -67.129188, 10.456682 ], [ -67.130486, 10.456399 ], [ -67.131066, 10.456121 ], [ -67.131927, 10.455794 ], [ -67.133064, 10.455145 ], [ -67.133873, 10.454887 ], [ -67.134804, 10.454744 ], [ -67.135666, 10.454694 ], [ -67.136826, 10.454550 ], [ -67.138313, 10.454220 ], [ -67.139130, 10.453917 ], [ -67.140099, 10.453636 ], [ -67.141029, 10.453470 ], [ -67.141937, 10.452959 ], [ -67.142448, 10.452496 ], [ -67.143394, 10.451159 ], [ -67.143852, 10.450304 ], [ -67.144592, 10.449450 ], [ -67.145332, 10.448825 ], [ -67.146049, 10.448454 ], [ -67.147560, 10.446882 ], [ -67.147949, 10.446512 ], [ -67.148712, 10.445634 ], [ -67.149643, 10.444962 ], [ -67.150734, 10.444335 ], [ -67.151566, 10.444056 ], [ -67.152054, 10.443914 ], [ -67.153008, 10.443955 ], [ -67.154709, 10.444107 ], [ -67.156799, 10.443890 ], [ -67.157288, 10.443887 ], [ -67.157768, 10.443494 ], [ -67.158348, 10.442892 ], [ -67.159042, 10.441923 ], [ -67.159531, 10.441116 ], [ -67.160057, 10.440192 ], [ -67.160195, 10.440084 ], [ -67.160477, 10.439868 ], [ -67.161102, 10.439727 ], [ -67.162216, 10.439216 ], [ -67.163170, 10.438981 ], [ -67.164353, 10.438836 ], [ -67.165001, 10.438418 ], [ -67.165787, 10.437862 ], [ -67.166580, 10.437606 ], [ -67.167389, 10.437164 ], [ -67.169479, 10.435865 ], [ -67.171196, 10.435259 ], [ -67.172630, 10.434607 ], [ -67.173790, 10.434210 ], [ -67.174911, 10.434089 ], [ -67.175979, 10.434152 ], [ -67.177162, 10.433801 ], [ -67.178184, 10.433243 ], [ -67.178993, 10.432641 ], [ -67.180015, 10.431969 ], [ -67.180504, 10.431736 ], [ -67.181755, 10.431522 ], [ -67.182938, 10.431562 ], [ -67.184914, 10.431275 ], [ -67.185638, 10.431065 ], [ -67.186073, 10.430970 ], [ -67.187813, 10.429857 ], [ -67.188721, 10.429392 ], [ -67.189255, 10.429228 ], [ -67.190231, 10.428947 ], [ -67.190971, 10.428644 ], [ -67.192085, 10.427994 ], [ -67.192940, 10.427415 ], [ -67.193497, 10.427020 ], [ -67.194565, 10.426784 ], [ -67.195747, 10.426755 ], [ -67.196381, 10.426867 ], [ -67.198036, 10.427341 ], [ -67.199287, 10.427218 ], [ -67.200653, 10.426660 ], [ -67.201187, 10.426266 ], [ -67.202209, 10.425248 ], [ -67.202599, 10.424809 ], [ -67.203384, 10.424000 ], [ -67.203873, 10.423676 ], [ -67.205010, 10.423416 ], [ -67.205757, 10.423618 ], [ -67.206459, 10.424052 ], [ -67.206993, 10.424372 ], [ -67.207504, 10.424713 ], [ -67.208138, 10.424939 ], [ -67.208572, 10.424753 ], [ -67.208832, 10.424315 ], [ -67.208778, 10.423372 ], [ -67.208519, 10.422615 ], [ -67.208328, 10.422202 ], [ -67.208092, 10.421330 ], [ -67.207878, 10.420595 ], [ -67.207550, 10.419999 ], [ -67.207382, 10.418666 ], [ -67.207802, 10.418135 ], [ -67.208191, 10.417902 ], [ -67.208725, 10.417808 ], [ -67.209144, 10.418035 ], [ -67.209823, 10.418537 ], [ -67.210525, 10.419017 ], [ -67.211433, 10.419311 ], [ -67.212456, 10.419420 ], [ -67.213341, 10.419668 ], [ -67.214432, 10.419547 ], [ -67.214966, 10.419430 ], [ -67.215729, 10.419172 ], [ -67.216194, 10.419054 ], [ -67.216797, 10.418868 ], [ -67.217728, 10.418654 ], [ -67.218239, 10.418284 ], [ -67.218651, 10.416972 ], [ -67.218597, 10.416327 ], [ -67.218552, 10.415109 ], [ -67.218147, 10.414307 ], [ -67.218094, 10.413202 ], [ -67.218750, 10.413177 ], [ -67.219490, 10.413517 ], [ -67.220352, 10.413719 ], [ -67.221588, 10.413897 ], [ -67.222374, 10.413432 ], [ -67.222885, 10.413246 ], [ -67.223907, 10.413424 ], [ -67.224793, 10.413695 ], [ -67.226730, 10.414650 ], [ -67.227524, 10.415266 ], [ -67.228615, 10.415606 ], [ -67.229133, 10.416500 ], [ -67.229302, 10.417050 ], [ -67.229927, 10.417829 ], [ -67.230141, 10.418357 ], [ -67.230614, 10.419135 ], [ -67.231216, 10.419569 ], [ -67.231796, 10.419727 ], [ -67.232407, 10.419839 ], [ -67.233009, 10.419882 ], [ -67.234314, 10.420495 ], [ -67.235481, 10.420856 ], [ -67.236435, 10.421127 ], [ -67.237831, 10.421925 ], [ -67.238693, 10.422472 ], [ -67.239395, 10.423065 ], [ -67.240029, 10.423821 ], [ -67.240196, 10.424740 ], [ -67.240830, 10.425840 ], [ -67.241020, 10.426576 ], [ -67.241303, 10.427240 ], [ -67.241699, 10.427721 ], [ -67.242912, 10.428451 ], [ -67.243843, 10.428836 ], [ -67.245354, 10.429173 ], [ -67.246407, 10.429535 ], [ -67.246864, 10.429556 ], [ -67.248032, 10.429548 ], [ -67.249939, 10.429492 ], [ -67.250351, 10.429283 ], [ -67.251099, 10.428796 ], [ -67.251533, 10.428403 ], [ -67.252281, 10.428030 ], [ -67.253342, 10.427472 ], [ -67.254456, 10.427168 ], [ -67.255409, 10.426817 ], [ -67.256340, 10.426650 ], [ -67.256828, 10.426511 ], [ -67.257660, 10.426322 ], [ -67.258293, 10.426157 ], [ -67.259636, 10.425827 ], [ -67.262100, 10.425814 ], [ -67.263542, 10.425851 ], [ -67.265427, 10.426070 ], [ -67.266800, 10.425925 ], [ -67.268288, 10.425710 ], [ -67.269722, 10.424988 ], [ -67.270393, 10.424386 ], [ -67.271584, 10.425024 ], [ -67.272446, 10.425249 ], [ -67.273605, 10.425426 ], [ -67.274468, 10.425743 ], [ -67.275284, 10.425739 ], [ -67.276283, 10.425687 ], [ -67.277123, 10.425407 ], [ -67.277863, 10.424850 ], [ -67.278465, 10.424272 ], [ -67.278831, 10.424040 ], [ -67.279694, 10.423620 ], [ -67.280411, 10.423294 ], [ -67.281151, 10.422946 ], [ -67.282456, 10.423421 ], [ -67.283340, 10.423783 ], [ -67.283623, 10.424173 ], [ -67.284187, 10.425021 ], [ -67.285164, 10.425982 ], [ -67.285866, 10.426276 ], [ -67.286682, 10.426571 ], [ -67.287567, 10.426819 ], [ -67.288452, 10.427182 ], [ -67.289223, 10.427270 ], [ -67.289940, 10.427426 ], [ -67.291382, 10.426889 ], [ -67.292557, 10.425962 ], [ -67.293305, 10.425567 ], [ -67.294044, 10.425263 ], [ -67.294785, 10.424846 ], [ -67.295738, 10.424173 ], [ -67.296173, 10.423757 ], [ -67.296547, 10.423317 ], [ -67.297195, 10.422692 ], [ -67.297890, 10.422159 ], [ -67.298561, 10.421812 ], [ -67.299416, 10.421186 ], [ -67.300064, 10.420676 ], [ -67.300552, 10.420420 ], [ -67.301064, 10.420186 ], [ -67.302315, 10.419857 ], [ -67.303574, 10.419436 ], [ -67.304871, 10.418946 ], [ -67.305679, 10.418435 ], [ -67.306168, 10.417582 ], [ -67.307160, 10.416702 ], [ -67.308273, 10.416098 ], [ -67.308899, 10.415657 ], [ -67.309685, 10.415147 ], [ -67.310242, 10.414660 ], [ -67.311241, 10.414125 ], [ -67.312492, 10.413912 ], [ -67.313286, 10.413907 ], [ -67.314537, 10.413463 ], [ -67.315002, 10.413253 ], [ -67.315674, 10.412858 ], [ -67.316208, 10.412510 ], [ -67.316765, 10.412185 ], [ -67.317574, 10.411812 ], [ -67.318291, 10.411531 ], [ -67.320061, 10.411131 ], [ -67.321152, 10.410756 ], [ -67.323051, 10.410355 ], [ -67.323868, 10.410419 ], [ -67.324425, 10.410576 ], [ -67.325607, 10.410178 ], [ -67.326332, 10.410013 ], [ -67.327209, 10.409525 ], [ -67.327789, 10.409361 ], [ -67.329048, 10.409077 ], [ -67.329720, 10.409073 ], [ -67.330810, 10.408768 ], [ -67.331688, 10.408211 ], [ -67.332131, 10.407817 ], [ -67.332848, 10.407238 ], [ -67.333237, 10.406615 ], [ -67.333587, 10.405807 ], [ -67.333885, 10.405070 ], [ -67.334183, 10.403941 ], [ -67.334244, 10.403320 ], [ -67.334450, 10.402559 ], [ -67.334724, 10.401937 ], [ -67.335213, 10.401153 ], [ -67.336433, 10.399857 ], [ -67.336784, 10.399533 ], [ -67.337128, 10.399140 ], [ -67.337708, 10.398677 ], [ -67.338615, 10.398143 ], [ -67.339264, 10.398070 ], [ -67.340370, 10.396891 ], [ -67.340950, 10.396426 ], [ -67.341415, 10.396079 ], [ -67.342064, 10.395616 ], [ -67.342613, 10.394278 ], [ -67.343056, 10.393746 ], [ -67.343773, 10.393305 ], [ -67.344490, 10.392795 ], [ -67.344902, 10.392402 ], [ -67.345322, 10.391939 ], [ -67.345665, 10.391431 ], [ -67.346153, 10.390830 ], [ -67.346298, 10.391336 ], [ -67.346390, 10.391978 ], [ -67.346161, 10.392785 ], [ -67.346237, 10.393704 ], [ -67.345986, 10.395155 ], [ -67.345993, 10.396075 ], [ -67.345795, 10.397225 ], [ -67.345726, 10.398124 ], [ -67.345406, 10.399459 ], [ -67.345413, 10.400034 ], [ -67.345535, 10.401574 ], [ -67.345604, 10.402057 ], [ -67.345909, 10.402424 ], [ -67.346168, 10.402905 ], [ -67.346542, 10.403362 ], [ -67.347664, 10.404345 ], [ -67.348602, 10.405535 ], [ -67.349167, 10.406268 ], [ -67.349472, 10.406726 ], [ -67.349915, 10.407620 ], [ -67.350479, 10.408444 ], [ -67.350899, 10.408834 ], [ -67.351418, 10.409613 ], [ -67.352211, 10.410229 ], [ -67.352722, 10.410410 ], [ -67.353073, 10.410683 ], [ -67.353607, 10.411002 ], [ -67.354187, 10.411114 ], [ -67.354912, 10.411156 ], [ -67.355614, 10.411634 ], [ -67.356354, 10.411905 ], [ -67.356964, 10.412248 ], [ -67.357475, 10.412359 ], [ -67.358009, 10.412609 ], [ -67.358688, 10.413341 ], [ -67.359062, 10.414166 ], [ -67.359512, 10.414924 ], [ -67.359886, 10.415750 ], [ -67.360428, 10.416482 ], [ -67.360451, 10.417356 ], [ -67.360527, 10.417953 ], [ -67.360481, 10.418413 ], [ -67.360489, 10.419172 ], [ -67.360443, 10.419862 ], [ -67.359985, 10.420899 ], [ -67.359802, 10.421592 ], [ -67.359711, 10.422166 ], [ -67.359718, 10.422972 ], [ -67.359886, 10.424121 ], [ -67.360123, 10.425085 ], [ -67.360382, 10.425751 ], [ -67.360802, 10.426253 ], [ -67.361534, 10.427560 ], [ -67.362251, 10.428016 ], [ -67.362465, 10.428590 ], [ -67.362472, 10.429234 ], [ -67.362312, 10.429672 ], [ -67.362221, 10.430339 ], [ -67.361763, 10.431515 ], [ -67.361580, 10.432321 ], [ -67.361473, 10.433333 ], [ -67.361267, 10.433979 ], [ -67.361198, 10.434922 ], [ -67.361252, 10.435519 ], [ -67.361412, 10.436070 ], [ -67.361603, 10.436529 ], [ -67.362236, 10.437446 ], [ -67.362587, 10.437881 ], [ -67.362518, 10.438663 ], [ -67.361671, 10.439980 ], [ -67.361183, 10.440579 ], [ -67.360771, 10.441181 ], [ -67.360840, 10.441731 ], [ -67.360939, 10.442260 ], [ -67.361359, 10.443339 ], [ -67.361442, 10.445040 ], [ -67.361442, 10.445868 ], [ -67.362190, 10.446967 ], [ -67.362846, 10.447355 ], [ -67.363640, 10.447741 ], [ -67.364082, 10.447830 ], [ -67.364990, 10.447917 ], [ -67.365547, 10.447913 ], [ -67.366386, 10.447771 ], [ -67.367478, 10.447535 ], [ -67.368034, 10.447484 ], [ -67.368385, 10.447896 ], [ -67.368904, 10.449204 ], [ -67.369492, 10.450191 ], [ -67.370026, 10.450646 ], [ -67.370750, 10.451517 ], [ -67.370964, 10.452090 ], [ -67.371132, 10.452734 ], [ -67.371300, 10.453307 ], [ -67.371651, 10.454156 ], [ -67.372047, 10.454706 ], [ -67.373604, 10.454788 ], [ -67.375023, 10.454780 ], [ -67.375397, 10.455168 ], [ -67.375633, 10.455558 ], [ -67.375847, 10.456017 ], [ -67.376152, 10.456982 ], [ -67.376320, 10.457785 ], [ -67.376839, 10.458380 ], [ -67.377213, 10.459620 ], [ -67.377403, 10.460445 ], [ -67.377479, 10.461090 ], [ -67.377716, 10.462031 ], [ -67.378189, 10.463155 ], [ -67.378403, 10.464005 ], [ -67.378029, 10.464721 ], [ -67.377922, 10.465250 ], [ -67.378181, 10.466306 ], [ -67.378487, 10.466742 ], [ -67.378975, 10.467107 ], [ -67.379280, 10.467749 ], [ -67.379196, 10.468715 ], [ -67.379204, 10.470877 ], [ -67.379417, 10.471589 ], [ -67.380028, 10.471885 ], [ -67.380493, 10.472043 ], [ -67.380753, 10.472547 ], [ -67.380943, 10.473719 ], [ -67.381226, 10.474730 ], [ -67.381348, 10.475625 ], [ -67.381515, 10.476315 ], [ -67.381889, 10.476955 ], [ -67.382172, 10.477507 ], [ -67.382294, 10.478288 ], [ -67.382157, 10.479553 ], [ -67.382027, 10.480359 ], [ -67.382309, 10.481853 ], [ -67.382240, 10.482313 ], [ -67.382034, 10.482865 ], [ -67.381691, 10.483512 ], [ -67.381348, 10.484227 ], [ -67.381210, 10.484711 ], [ -67.381309, 10.485376 ], [ -67.381752, 10.485604 ], [ -67.382355, 10.485601 ], [ -67.383049, 10.485643 ], [ -67.383774, 10.485984 ], [ -67.384521, 10.486209 ], [ -67.385078, 10.486620 ], [ -67.386154, 10.486659 ], [ -67.387360, 10.486008 ], [ -67.388145, 10.485910 ], [ -67.388756, 10.486114 ], [ -67.389244, 10.486434 ], [ -67.389641, 10.486914 ], [ -67.389687, 10.487419 ], [ -67.389976, 10.488499 ], [ -67.390648, 10.488633 ], [ -67.391212, 10.489043 ], [ -67.390701, 10.489875 ], [ -67.390221, 10.490407 ], [ -67.390015, 10.491006 ], [ -67.389854, 10.491880 ], [ -67.389763, 10.492548 ], [ -67.389725, 10.493491 ], [ -67.389610, 10.494159 ], [ -67.389565, 10.494619 ], [ -67.389526, 10.495379 ], [ -67.389740, 10.496067 ], [ -67.389740, 10.496596 ], [ -67.388931, 10.497108 ], [ -67.388679, 10.497684 ], [ -67.389053, 10.498279 ], [ -67.389565, 10.498575 ], [ -67.390221, 10.498939 ], [ -67.390984, 10.498958 ], [ -67.391892, 10.499159 ], [ -67.392250, 10.499846 ], [ -67.392830, 10.500097 ], [ -67.393432, 10.499816 ], [ -67.394363, 10.499420 ], [ -67.394943, 10.499255 ], [ -67.395775, 10.499297 ], [ -67.396713, 10.499889 ], [ -67.397202, 10.500323 ], [ -67.397598, 10.500781 ], [ -67.397812, 10.501654 ], [ -67.397819, 10.502320 ], [ -67.398056, 10.503146 ], [ -67.398659, 10.503258 ], [ -67.399406, 10.503300 ], [ -67.399406, 10.503736 ], [ -67.399246, 10.504705 ], [ -67.399696, 10.504838 ], [ -67.400574, 10.504580 ], [ -67.401298, 10.504852 ], [ -67.401672, 10.505563 ], [ -67.402237, 10.506318 ], [ -67.402748, 10.506867 ], [ -67.403313, 10.507738 ], [ -67.403618, 10.508104 ], [ -67.403763, 10.508541 ], [ -67.404137, 10.509136 ], [ -67.404717, 10.509248 ], [ -67.405327, 10.509681 ], [ -67.405975, 10.509815 ], [ -67.406509, 10.509604 ], [ -67.406975, 10.509603 ], [ -67.407700, 10.509689 ], [ -67.407562, 10.510105 ], [ -67.407425, 10.510703 ], [ -67.407432, 10.511829 ], [ -67.407829, 10.512264 ], [ -67.407456, 10.512841 ], [ -67.407043, 10.512982 ], [ -67.407181, 10.513465 ], [ -67.407837, 10.514105 ], [ -67.408348, 10.513987 ], [ -67.409119, 10.514189 ], [ -67.410187, 10.514619 ], [ -67.410683, 10.515329 ], [ -67.410751, 10.515766 ], [ -67.410851, 10.516202 ], [ -67.410644, 10.516617 ], [ -67.410293, 10.516918 ], [ -67.409828, 10.517059 ], [ -67.409203, 10.517132 ], [ -67.408226, 10.517414 ], [ -67.407646, 10.517488 ], [ -67.407181, 10.517627 ], [ -67.406883, 10.518043 ], [ -67.407303, 10.518662 ], [ -67.407608, 10.519166 ], [ -67.407707, 10.519786 ], [ -67.407379, 10.520271 ], [ -67.406548, 10.520737 ], [ -67.405968, 10.520924 ], [ -67.405456, 10.521064 ], [ -67.404808, 10.521184 ], [ -67.404160, 10.521395 ], [ -67.403923, 10.521787 ], [ -67.404488, 10.522128 ], [ -67.404816, 10.522425 ], [ -67.405045, 10.522815 ], [ -67.405724, 10.523547 ], [ -67.405685, 10.524306 ], [ -67.405685, 10.524789 ], [ -67.405365, 10.525481 ], [ -67.405182, 10.526034 ], [ -67.405281, 10.526724 ], [ -67.405190, 10.527368 ], [ -67.404724, 10.527808 ], [ -67.404335, 10.528362 ], [ -67.403893, 10.528480 ], [ -67.403290, 10.528668 ], [ -67.402687, 10.528810 ], [ -67.401779, 10.528815 ], [ -67.401337, 10.528887 ], [ -67.401367, 10.529691 ], [ -67.401550, 10.530104 ], [ -67.401489, 10.530887 ], [ -67.400887, 10.531303 ], [ -67.399651, 10.531449 ], [ -67.399002, 10.531638 ], [ -67.398682, 10.532007 ], [ -67.398544, 10.532422 ], [ -67.398338, 10.532939 ], [ -67.397926, 10.533331 ], [ -67.396438, 10.535677 ], [ -67.396172, 10.536045 ], [ -67.396050, 10.536209 ], [ -67.395233, 10.536098 ], [ -67.394631, 10.535573 ], [ -67.394134, 10.535208 ], [ -67.393768, 10.535579 ], [ -67.393280, 10.536018 ], [ -67.392578, 10.535701 ], [ -67.392143, 10.536072 ], [ -67.391678, 10.536166 ], [ -67.390984, 10.536538 ], [ -67.390846, 10.536953 ], [ -67.389885, 10.536820 ], [ -67.389397, 10.536410 ], [ -67.388466, 10.536645 ], [ -67.387726, 10.536650 ], [ -67.386978, 10.536194 ], [ -67.386513, 10.536289 ], [ -67.385887, 10.536477 ], [ -67.385262, 10.536918 ], [ -67.384583, 10.536967 ], [ -67.384003, 10.536787 ], [ -67.383026, 10.536655 ], [ -67.381821, 10.536983 ], [ -67.380867, 10.537496 ], [ -67.380241, 10.537293 ], [ -67.379356, 10.537183 ], [ -67.378586, 10.537072 ], [ -67.377892, 10.537100 ], [ -67.377167, 10.537011 ], [ -67.376053, 10.536903 ], [ -67.375588, 10.537090 ], [ -67.374886, 10.537210 ], [ -67.374519, 10.537878 ], [ -67.372338, 10.538098 ], [ -67.371315, 10.539346 ], [ -67.371040, 10.539762 ], [ -67.370178, 10.539928 ], [ -67.369667, 10.539931 ], [ -67.369041, 10.540004 ], [ -67.368370, 10.540191 ], [ -67.367905, 10.540355 ], [ -67.366997, 10.540384 ], [ -67.366348, 10.540848 ], [ -67.365303, 10.541245 ], [ -67.364654, 10.541248 ], [ -67.363724, 10.541139 ], [ -67.363068, 10.541051 ], [ -67.362396, 10.541124 ], [ -67.361488, 10.541175 ], [ -67.360626, 10.541318 ], [ -67.359749, 10.541738 ], [ -67.359100, 10.542432 ], [ -67.358589, 10.542157 ], [ -67.358055, 10.542414 ], [ -67.356888, 10.542605 ], [ -67.355911, 10.542748 ], [ -67.355423, 10.542683 ], [ -67.354729, 10.542778 ], [ -67.353844, 10.543290 ], [ -67.353172, 10.543478 ], [ -67.352547, 10.543481 ], [ -67.351707, 10.543808 ], [ -67.351227, 10.544202 ], [ -67.350578, 10.544712 ], [ -67.350204, 10.545036 ], [ -67.349487, 10.545317 ], [ -67.348816, 10.546033 ], [ -67.348144, 10.546406 ], [ -67.347534, 10.546616 ], [ -67.346977, 10.546641 ], [ -67.346512, 10.546644 ], [ -67.345909, 10.546717 ], [ -67.344749, 10.546563 ], [ -67.344673, 10.546035 ], [ -67.344459, 10.545621 ], [ -67.343903, 10.544889 ], [ -67.343529, 10.544362 ], [ -67.343216, 10.543099 ], [ -67.342819, 10.542479 ], [ -67.342560, 10.541953 ], [ -67.341744, 10.541797 ], [ -67.341209, 10.542029 ], [ -67.340744, 10.542216 ], [ -67.340004, 10.543003 ], [ -67.339569, 10.543948 ], [ -67.339577, 10.544776 ], [ -67.339806, 10.545442 ], [ -67.340393, 10.546151 ], [ -67.340889, 10.546815 ], [ -67.340775, 10.547276 ], [ -67.339821, 10.547006 ], [ -67.339050, 10.546597 ], [ -67.338539, 10.546644 ], [ -67.337585, 10.546835 ], [ -67.336960, 10.547068 ], [ -67.336395, 10.547026 ], [ -67.335701, 10.546937 ], [ -67.334099, 10.547246 ], [ -67.333214, 10.547112 ], [ -67.332634, 10.547255 ], [ -67.332054, 10.547327 ], [ -67.331444, 10.547146 ], [ -67.331093, 10.546757 ], [ -67.330490, 10.546531 ], [ -67.329880, 10.546626 ], [ -67.328834, 10.546769 ], [ -67.328674, 10.546058 ], [ -67.328346, 10.545600 ], [ -67.328224, 10.545026 ], [ -67.327896, 10.544430 ], [ -67.327385, 10.544456 ], [ -67.326668, 10.544782 ], [ -67.325851, 10.545039 ], [ -67.325432, 10.545249 ], [ -67.324715, 10.545070 ], [ -67.324272, 10.544888 ], [ -67.323593, 10.544892 ], [ -67.323082, 10.544803 ], [ -67.322502, 10.545105 ], [ -67.321709, 10.545109 ], [ -67.320915, 10.544654 ], [ -67.320358, 10.544243 ], [ -67.319893, 10.543762 ], [ -67.319122, 10.543491 ], [ -67.318191, 10.543428 ], [ -67.317634, 10.543569 ], [ -67.316955, 10.543159 ], [ -67.316284, 10.543508 ], [ -67.315727, 10.543948 ], [ -67.315315, 10.544525 ], [ -67.314407, 10.544737 ], [ -67.314033, 10.544970 ], [ -67.313568, 10.544374 ], [ -67.312958, 10.543711 ], [ -67.312538, 10.543942 ], [ -67.311867, 10.543763 ], [ -67.311630, 10.543350 ], [ -67.311119, 10.543238 ], [ -67.310486, 10.543012 ], [ -67.309791, 10.543085 ], [ -67.309349, 10.543364 ], [ -67.308792, 10.543780 ], [ -67.307633, 10.544339 ], [ -67.306236, 10.544348 ], [ -67.304848, 10.544701 ], [ -67.303635, 10.544983 ], [ -67.303108, 10.545377 ], [ -67.302475, 10.545381 ], [ -67.301735, 10.545500 ], [ -67.301338, 10.545296 ], [ -67.300682, 10.545160 ], [ -67.300362, 10.545530 ], [ -67.299477, 10.545766 ], [ -67.298943, 10.545999 ], [ -67.298180, 10.545865 ], [ -67.296852, 10.546288 ], [ -67.295998, 10.546590 ], [ -67.295250, 10.546640 ], [ -67.294205, 10.546923 ], [ -67.292931, 10.547229 ], [ -67.292419, 10.547760 ], [ -67.291954, 10.547971 ], [ -67.291511, 10.548410 ], [ -67.290634, 10.548645 ], [ -67.289886, 10.548373 ], [ -67.288559, 10.548380 ], [ -67.287819, 10.548637 ], [ -67.287193, 10.549308 ], [ -67.286430, 10.549726 ], [ -67.285728, 10.549615 ], [ -67.285004, 10.549252 ], [ -67.284538, 10.549093 ], [ -67.283775, 10.549121 ], [ -67.282776, 10.549195 ], [ -67.282280, 10.549152 ], [ -67.281586, 10.549156 ], [ -67.280167, 10.549716 ], [ -67.278755, 10.550184 ], [ -67.278175, 10.550141 ], [ -67.277130, 10.550400 ], [ -67.275780, 10.550844 ], [ -67.274681, 10.550413 ], [ -67.273727, 10.550303 ], [ -67.273147, 10.549410 ], [ -67.272652, 10.549229 ], [ -67.271561, 10.548729 ], [ -67.270676, 10.548734 ], [ -67.270188, 10.548852 ], [ -67.269402, 10.549591 ], [ -67.268890, 10.549525 ], [ -67.268303, 10.549115 ], [ -67.267235, 10.549466 ], [ -67.266495, 10.550068 ], [ -67.265846, 10.550002 ], [ -67.265282, 10.549891 ], [ -67.264374, 10.549551 ], [ -67.263611, 10.549648 ], [ -67.263146, 10.549374 ], [ -67.262649, 10.549100 ], [ -67.262116, 10.549104 ], [ -67.261490, 10.549315 ], [ -67.260628, 10.549318 ], [ -67.259911, 10.549437 ], [ -67.259300, 10.549234 ], [ -67.258560, 10.549147 ], [ -67.256981, 10.549455 ], [ -67.256470, 10.549366 ], [ -67.255676, 10.549416 ], [ -67.254402, 10.550021 ], [ -67.253449, 10.550646 ], [ -67.252541, 10.550836 ], [ -67.252014, 10.551713 ], [ -67.251480, 10.551992 ], [ -67.251137, 10.553165 ], [ -67.250625, 10.553168 ], [ -67.249855, 10.553403 ], [ -67.249298, 10.553176 ], [ -67.249062, 10.552510 ], [ -67.248573, 10.552283 ], [ -67.248245, 10.551641 ], [ -67.247292, 10.551301 ], [ -67.246078, 10.551608 ], [ -67.245079, 10.551981 ], [ -67.244225, 10.552444 ], [ -67.243408, 10.552449 ], [ -67.242783, 10.552774 ], [ -67.242249, 10.552893 ], [ -67.241714, 10.553448 ], [ -67.240997, 10.553658 ], [ -67.240364, 10.553364 ], [ -67.239853, 10.553183 ], [ -67.239296, 10.553392 ], [ -67.238136, 10.553445 ], [ -67.237251, 10.554048 ], [ -67.237259, 10.554646 ], [ -67.237305, 10.555565 ], [ -67.237618, 10.556690 ], [ -67.237572, 10.557197 ], [ -67.236992, 10.557636 ], [ -67.236069, 10.558424 ], [ -67.235367, 10.558312 ], [ -67.235062, 10.557716 ], [ -67.234970, 10.557073 ], [ -67.234291, 10.556364 ], [ -67.233795, 10.555676 ], [ -67.233536, 10.555195 ], [ -67.232681, 10.555314 ], [ -67.231888, 10.555159 ], [ -67.231445, 10.554907 ], [ -67.230820, 10.555256 ], [ -67.229797, 10.555353 ], [ -67.229263, 10.555563 ], [ -67.228538, 10.555521 ], [ -67.227867, 10.555571 ], [ -67.228119, 10.555179 ], [ -67.227280, 10.554976 ], [ -67.226647, 10.554129 ], [ -67.225739, 10.554225 ], [ -67.224487, 10.554394 ], [ -67.223877, 10.553868 ], [ -67.222786, 10.553850 ], [ -67.222061, 10.553601 ], [ -67.221298, 10.553537 ], [ -67.220833, 10.553470 ], [ -67.220131, 10.553566 ], [ -67.219597, 10.553661 ], [ -67.219040, 10.553618 ], [ -67.218086, 10.553623 ], [ -67.217178, 10.553882 ], [ -67.216507, 10.553655 ], [ -67.215507, 10.553936 ], [ -67.214951, 10.554215 ], [ -67.214066, 10.554427 ], [ -67.213180, 10.554294 ], [ -67.212364, 10.553907 ], [ -67.211296, 10.554120 ], [ -67.210602, 10.554354 ], [ -67.210205, 10.554609 ], [ -67.209885, 10.555324 ], [ -67.209656, 10.555968 ], [ -67.209770, 10.556543 ], [ -67.209313, 10.556752 ], [ -67.209175, 10.557466 ], [ -67.208969, 10.558088 ], [ -67.208435, 10.558435 ], [ -67.207390, 10.558902 ], [ -67.206230, 10.559276 ], [ -67.205627, 10.559371 ], [ -67.204857, 10.559145 ], [ -67.204437, 10.558664 ], [ -67.203903, 10.558967 ], [ -67.202950, 10.559178 ], [ -67.202385, 10.558813 ], [ -67.201782, 10.558724 ], [ -67.201248, 10.558728 ], [ -67.200226, 10.558549 ], [ -67.199593, 10.558483 ], [ -67.198776, 10.558120 ], [ -67.198059, 10.557962 ], [ -67.197403, 10.557783 ], [ -67.195968, 10.558135 ], [ -67.194916, 10.558164 ], [ -67.194382, 10.558282 ], [ -67.193664, 10.558170 ], [ -67.192825, 10.557899 ], [ -67.191818, 10.557306 ], [ -67.191055, 10.557426 ], [ -67.189987, 10.557500 ], [ -67.188774, 10.557989 ], [ -67.187843, 10.557926 ], [ -67.187126, 10.557837 ], [ -67.186058, 10.557728 ], [ -67.185471, 10.557248 ], [ -67.184051, 10.557486 ], [ -67.183426, 10.557765 ], [ -67.182938, 10.558457 ], [ -67.182266, 10.558852 ], [ -67.181343, 10.559179 ], [ -67.180458, 10.559344 ], [ -67.179947, 10.559600 ], [ -67.179092, 10.560479 ], [ -67.178535, 10.560528 ], [ -67.177994, 10.560254 ], [ -67.176720, 10.560399 ], [ -67.175438, 10.561027 ], [ -67.174858, 10.561329 ], [ -67.174095, 10.561333 ], [ -67.173607, 10.561358 ], [ -67.173050, 10.561477 ], [ -67.172607, 10.561708 ], [ -67.171959, 10.562126 ], [ -67.171448, 10.562175 ], [ -67.170196, 10.562848 ], [ -67.169731, 10.563058 ], [ -67.168732, 10.563040 ], [ -67.167869, 10.562999 ], [ -67.166382, 10.562707 ], [ -67.165512, 10.562390 ], [ -67.165047, 10.562185 ], [ -67.164513, 10.562074 ], [ -67.162277, 10.561901 ], [ -67.161698, 10.562019 ], [ -67.161118, 10.561815 ], [ -67.160255, 10.561682 ], [ -67.159027, 10.562033 ], [ -67.158607, 10.562381 ], [ -67.158028, 10.562798 ], [ -67.157517, 10.563283 ], [ -67.156502, 10.563863 ], [ -67.155777, 10.564303 ], [ -67.155388, 10.564581 ], [ -67.154854, 10.565251 ], [ -67.154343, 10.565461 ], [ -67.154114, 10.565946 ], [ -67.153694, 10.566591 ], [ -67.153091, 10.566503 ], [ -67.152435, 10.566184 ], [ -67.151832, 10.566141 ], [ -67.149903, 10.566289 ], [ -67.149483, 10.566475 ], [ -67.148049, 10.567149 ], [ -67.147331, 10.567774 ], [ -67.146820, 10.568444 ], [ -67.146614, 10.568905 ], [ -67.145844, 10.568977 ], [ -67.145378, 10.568358 ], [ -67.144424, 10.568318 ], [ -67.143608, 10.568322 ], [ -67.142983, 10.568348 ], [ -67.142258, 10.568421 ], [ -67.141167, 10.568817 ], [ -67.140472, 10.568983 ], [ -67.140007, 10.569353 ], [ -67.139801, 10.569814 ], [ -67.139808, 10.570412 ], [ -67.140045, 10.571331 ], [ -67.140114, 10.571858 ], [ -67.140068, 10.572342 ], [ -67.139717, 10.571861 ], [ -67.139504, 10.571403 ], [ -67.139069, 10.571542 ], [ -67.137695, 10.571803 ], [ -67.136955, 10.572082 ], [ -67.136139, 10.572086 ], [ -67.135346, 10.571929 ], [ -67.133949, 10.571223 ], [ -67.132995, 10.571090 ], [ -67.132088, 10.571279 ], [ -67.131317, 10.571674 ], [ -67.130509, 10.572299 ], [ -67.129723, 10.572625 ], [ -67.129051, 10.572927 ], [ -67.128349, 10.573184 ], [ -67.127212, 10.573512 ], [ -67.126213, 10.573609 ], [ -67.125046, 10.573431 ], [ -67.124069, 10.573505 ], [ -67.122795, 10.573764 ], [ -67.121887, 10.574044 ], [ -67.119476, 10.575115 ], [ -67.118919, 10.575348 ], [ -67.118385, 10.575627 ], [ -67.117638, 10.575884 ], [ -67.116806, 10.576646 ], [ -67.115349, 10.577574 ], [ -67.114365, 10.577211 ], [ -67.113670, 10.576984 ], [ -67.112877, 10.577058 ], [ -67.112434, 10.577128 ], [ -67.111572, 10.577340 ], [ -67.110809, 10.577436 ], [ -67.110298, 10.577600 ], [ -67.109276, 10.577904 ], [ -67.108833, 10.578113 ], [ -67.108719, 10.578734 ], [ -67.108658, 10.579447 ], [ -67.108170, 10.579450 ], [ -67.107681, 10.579637 ], [ -67.107239, 10.580098 ], [ -67.106445, 10.580033 ], [ -67.105751, 10.579922 ], [ -67.104706, 10.580042 ], [ -67.104103, 10.580344 ], [ -67.103424, 10.580808 ], [ -67.102661, 10.581409 ], [ -67.102013, 10.581803 ], [ -67.101181, 10.582360 ], [ -67.100433, 10.582800 ], [ -67.099342, 10.583312 ], [ -67.098808, 10.583199 ], [ -67.098129, 10.582490 ], [ -67.096893, 10.581876 ], [ -67.096405, 10.581601 ], [ -67.095406, 10.581193 ], [ -67.094147, 10.580648 ], [ -67.093498, 10.580697 ], [ -67.092499, 10.581000 ], [ -67.090919, 10.581791 ], [ -67.089989, 10.582484 ], [ -67.089294, 10.582833 ], [ -67.088669, 10.583066 ], [ -67.088204, 10.583758 ], [ -67.087509, 10.584106 ], [ -67.086395, 10.584503 ], [ -67.085228, 10.584509 ], [ -67.084625, 10.584719 ], [ -67.084091, 10.584814 ], [ -67.083489, 10.585161 ], [ -67.083054, 10.585554 ], [ -67.082466, 10.585788 ], [ -67.081680, 10.586205 ], [ -67.081261, 10.586530 ], [ -67.081291, 10.587358 ], [ -67.081009, 10.587819 ], [ -67.081131, 10.588392 ], [ -67.081970, 10.588664 ], [ -67.081978, 10.590389 ], [ -67.080559, 10.590051 ], [ -67.079956, 10.590123 ], [ -67.079788, 10.590562 ], [ -67.078468, 10.590568 ], [ -67.077927, 10.589236 ], [ -67.077438, 10.588985 ], [ -67.076431, 10.588738 ], [ -67.075943, 10.588625 ], [ -67.075478, 10.588605 ], [ -67.074829, 10.588999 ], [ -67.074394, 10.589507 ], [ -67.073998, 10.590267 ], [ -67.073555, 10.590661 ], [ -67.073143, 10.590985 ], [ -67.072792, 10.591286 ], [ -67.072327, 10.591449 ], [ -67.071587, 10.591544 ], [ -67.071144, 10.591432 ], [ -67.070679, 10.591182 ], [ -67.069862, 10.591002 ], [ -67.069237, 10.591027 ], [ -67.068466, 10.590985 ], [ -67.067467, 10.590990 ], [ -67.066490, 10.590949 ], [ -67.066750, 10.591682 ], [ -67.061867, 10.592673 ], [ -67.060379, 10.592841 ], [ -67.059051, 10.593101 ], [ -67.058518, 10.593356 ], [ -67.058105, 10.593796 ], [ -67.057480, 10.594327 ], [ -67.056923, 10.594537 ], [ -67.056297, 10.594678 ], [ -67.055618, 10.594749 ], [ -67.055016, 10.594684 ], [ -67.054459, 10.594572 ], [ -67.053848, 10.594528 ], [ -67.053390, 10.594830 ], [ -67.052712, 10.595132 ], [ -67.052063, 10.595296 ], [ -67.051178, 10.595623 ], [ -67.050156, 10.595926 ], [ -67.049164, 10.596391 ], [ -67.048630, 10.596900 ], [ -67.047905, 10.597178 ], [ -67.046234, 10.598039 ], [ -67.045517, 10.598387 ], [ -67.044495, 10.598967 ], [ -67.043777, 10.599499 ], [ -67.042709, 10.600171 ], [ -67.042130, 10.600564 ], [ -67.041366, 10.600982 ], [ -67.040627, 10.601606 ], [ -67.039902, 10.601702 ], [ -67.039230, 10.601958 ], [ -67.038879, 10.602373 ], [ -67.038651, 10.602835 ], [ -67.038536, 10.603618 ], [ -67.038056, 10.604401 ], [ -67.037636, 10.604610 ], [ -67.037308, 10.604910 ], [ -67.036987, 10.605418 ], [ -67.036919, 10.606085 ], [ -67.036621, 10.606685 ], [ -67.036766, 10.607236 ], [ -67.036621, 10.607742 ], [ -67.036980, 10.608338 ], [ -67.036377, 10.608939 ], [ -67.035675, 10.609471 ], [ -67.034195, 10.610100 ], [ -67.033615, 10.610332 ], [ -67.032661, 10.610682 ], [ -67.031960, 10.611076 ], [ -67.031456, 10.611378 ], [ -67.030754, 10.611932 ], [ -67.030365, 10.612210 ], [ -67.029617, 10.612468 ], [ -67.029350, 10.612509 ], [ -67.029152, 10.612538 ], [ -67.028664, 10.612540 ], [ -67.027618, 10.612454 ], [ -67.026993, 10.612456 ], [ -67.026619, 10.612735 ], [ -67.026253, 10.613173 ], [ -67.025741, 10.613612 ], [ -67.025299, 10.614028 ], [ -67.024788, 10.614583 ], [ -67.024323, 10.614769 ], [ -67.023697, 10.615070 ], [ -67.023140, 10.615211 ], [ -67.022491, 10.615330 ], [ -67.021797, 10.615494 ], [ -67.021164, 10.615588 ], [ -67.020722, 10.615591 ], [ -67.020256, 10.615617 ], [ -67.019585, 10.615619 ], [ -67.018860, 10.615508 ], [ -67.018417, 10.615417 ], [ -67.017143, 10.615286 ], [ -67.016395, 10.615427 ], [ -67.016067, 10.615084 ], [ -67.015556, 10.614857 ], [ -67.015091, 10.614836 ], [ -67.014603, 10.614839 ], [ -67.014046, 10.614864 ], [ -67.013862, 10.615301 ], [ -67.014053, 10.616129 ], [ -67.013794, 10.616704 ], [ -67.013191, 10.616407 ], [ -67.012558, 10.616135 ], [ -67.013023, 10.615811 ], [ -67.013138, 10.615190 ], [ -67.012878, 10.614662 ], [ -67.012390, 10.614504 ], [ -67.012001, 10.614827 ], [ -67.011558, 10.615105 ], [ -67.011879, 10.614390 ], [ -67.011322, 10.614095 ], [ -67.009278, 10.614357 ], [ -67.008644, 10.614360 ], [ -67.007927, 10.614341 ], [ -67.007393, 10.614229 ], [ -67.006828, 10.614047 ], [ -67.006180, 10.613773 ], [ -67.005669, 10.613616 ], [ -67.005203, 10.613411 ], [ -67.004524, 10.612977 ], [ -67.004173, 10.612679 ], [ -67.003708, 10.612430 ], [ -67.003266, 10.612270 ], [ -67.002777, 10.612181 ], [ -67.002243, 10.612114 ], [ -67.001564, 10.612071 ], [ -67.000801, 10.612121 ], [ -67.000053, 10.612331 ], [ -66.999252, 10.612930 ], [ -66.998421, 10.613342 ], [ -66.997749, 10.613710 ], [ -66.997192, 10.613732 ], [ -66.996269, 10.613686 ], [ -66.995667, 10.613547 ], [ -66.995110, 10.613547 ], [ -66.994392, 10.613845 ], [ -66.993599, 10.614303 ], [ -66.993019, 10.614578 ], [ -66.992279, 10.615083 ], [ -66.991768, 10.615496 ], [ -66.991028, 10.615725 ], [ -66.990173, 10.615747 ], [ -66.989525, 10.615976 ], [ -66.988876, 10.616044 ], [ -66.988388, 10.615906 ], [ -66.987831, 10.615653 ], [ -66.986565, 10.614940 ], [ -66.985848, 10.614367 ], [ -66.983650, 10.613080 ], [ -66.981987, 10.612573 ], [ -66.981155, 10.612366 ], [ -66.980438, 10.611653 ], [ -66.979836, 10.611310 ], [ -66.979141, 10.610759 ], [ -66.978661, 10.610252 ], [ -66.977821, 10.609862 ], [ -66.976875, 10.609563 ], [ -66.975975, 10.609722 ], [ -66.975510, 10.609952 ], [ -66.974556, 10.610364 ], [ -66.973961, 10.610524 ], [ -66.973145, 10.610523 ], [ -66.972221, 10.610729 ], [ -66.971344, 10.610821 ], [ -66.970627, 10.610637 ], [ -66.969604, 10.610269 ], [ -66.968842, 10.609739 ], [ -66.968223, 10.608936 ], [ -66.967598, 10.608294 ], [ -66.966629, 10.607443 ], [ -66.966072, 10.607053 ], [ -66.965752, 10.606709 ], [ -66.964989, 10.606111 ], [ -66.964531, 10.605905 ], [ -66.962463, 10.605007 ], [ -66.961815, 10.604662 ], [ -66.960594, 10.604111 ], [ -66.958832, 10.603536 ], [ -66.958122, 10.603259 ], [ -66.957520, 10.603212 ], [ -66.956589, 10.603533 ], [ -66.955917, 10.603923 ], [ -66.955383, 10.604496 ], [ -66.954460, 10.604518 ], [ -66.953552, 10.604816 ], [ -66.952721, 10.604837 ], [ -66.951653, 10.604883 ], [ -66.951149, 10.604975 ], [ -66.950500, 10.605020 ], [ -66.949661, 10.605065 ], [ -66.949089, 10.604996 ], [ -66.948112, 10.604742 ], [ -66.947487, 10.604811 ], [ -66.946793, 10.604764 ], [ -66.946404, 10.604465 ], [ -66.944199, 10.605725 ], [ -66.943039, 10.605909 ], [ -66.943855, 10.605450 ], [ -66.945824, 10.603753 ], [ -66.944877, 10.602972 ], [ -66.942001, 10.604760 ], [ -66.941704, 10.604369 ], [ -66.943718, 10.602879 ], [ -66.943443, 10.602329 ], [ -66.939858, 10.602547 ], [ -66.935669, 10.602803 ], [ -66.934990, 10.604043 ], [ -66.937424, 10.603975 ], [ -66.937302, 10.604549 ], [ -66.934570, 10.604708 ], [ -66.934410, 10.605877 ], [ -66.935219, 10.605970 ], [ -66.936028, 10.605971 ], [ -66.936699, 10.605995 ], [ -66.937347, 10.606064 ], [ -66.938225, 10.606179 ], [ -66.940422, 10.606961 ], [ -66.943291, 10.606965 ], [ -66.943176, 10.607469 ], [ -66.940353, 10.607421 ], [ -66.938088, 10.606593 ], [ -66.931534, 10.606494 ], [ -66.930794, 10.606357 ], [ -66.929611, 10.606173 ], [ -66.928924, 10.606010 ], [ -66.928063, 10.606078 ], [ -66.927437, 10.605825 ], [ -66.926933, 10.605710 ], [ -66.926117, 10.605710 ], [ -66.924454, 10.606511 ], [ -66.923782, 10.607015 ], [ -66.923157, 10.607312 ], [ -66.921951, 10.607427 ], [ -66.921326, 10.607357 ], [ -66.920654, 10.607471 ], [ -66.919960, 10.607815 ], [ -66.919098, 10.607906 ], [ -66.918594, 10.608020 ], [ -66.917778, 10.608295 ], [ -66.917267, 10.608616 ], [ -66.916298, 10.609118 ], [ -66.915741, 10.609486 ], [ -66.915069, 10.609462 ], [ -66.914581, 10.609369 ], [ -66.913727, 10.608978 ], [ -66.913361, 10.608658 ], [ -66.912506, 10.608175 ], [ -66.911667, 10.607807 ], [ -66.911552, 10.607737 ], [ -66.911049, 10.607439 ], [ -66.910263, 10.606911 ], [ -66.908089, 10.606106 ], [ -66.907234, 10.606104 ], [ -66.906280, 10.605828 ], [ -66.905541, 10.605896 ], [ -66.905098, 10.606148 ], [ -66.904610, 10.606698 ], [ -66.903778, 10.607387 ], [ -66.903313, 10.608073 ], [ -66.902275, 10.607981 ], [ -66.901741, 10.608003 ], [ -66.900414, 10.608759 ], [ -66.899162, 10.609286 ], [ -66.898239, 10.609767 ], [ -66.897339, 10.609859 ], [ -66.896614, 10.610017 ], [ -66.896088, 10.610017 ], [ -66.895531, 10.610130 ], [ -66.894165, 10.610452 ], [ -66.893517, 10.610221 ], [ -66.892403, 10.610862 ], [ -66.891640, 10.611252 ], [ -66.890732, 10.611594 ], [ -66.890129, 10.612719 ], [ -66.889526, 10.612970 ], [ -66.889038, 10.613383 ], [ -66.888710, 10.613772 ], [ -66.888321, 10.614071 ], [ -66.887573, 10.614597 ], [ -66.886856, 10.614941 ], [ -66.886093, 10.615216 ], [ -66.885628, 10.615560 ], [ -66.884445, 10.615834 ], [ -66.883499, 10.615741 ], [ -66.883034, 10.615603 ], [ -66.882576, 10.615120 ], [ -66.881393, 10.614453 ], [ -66.879616, 10.613855 ], [ -66.878464, 10.613119 ], [ -66.877724, 10.612728 ], [ -66.875961, 10.612382 ], [ -66.875107, 10.612565 ], [ -66.874062, 10.612747 ], [ -66.872856, 10.613228 ], [ -66.872162, 10.613480 ], [ -66.871353, 10.614006 ], [ -66.870613, 10.614441 ], [ -66.869728, 10.614900 ], [ -66.869263, 10.614893 ], [ -66.868431, 10.614989 ], [ -66.867180, 10.615195 ], [ -66.866646, 10.615218 ], [ -66.866142, 10.615148 ], [ -66.865471, 10.615354 ], [ -66.864769, 10.615605 ], [ -66.863869, 10.615650 ], [ -66.863197, 10.615832 ], [ -66.862663, 10.616131 ], [ -66.862152, 10.616360 ], [ -66.861412, 10.616726 ], [ -66.860832, 10.617620 ], [ -66.860550, 10.618101 ], [ -66.860207, 10.618537 ], [ -66.859604, 10.619064 ], [ -66.859138, 10.619294 ], [ -66.858536, 10.619959 ], [ -66.857811, 10.620508 ], [ -66.857071, 10.621036 ], [ -66.856377, 10.621264 ], [ -66.855911, 10.621929 ], [ -66.855331, 10.622088 ], [ -66.854591, 10.622225 ], [ -66.853455, 10.622224 ], [ -66.852226, 10.622681 ], [ -66.851532, 10.622979 ], [ -66.850540, 10.623230 ], [ -66.849701, 10.623230 ], [ -66.849174, 10.623091 ], [ -66.848221, 10.622791 ], [ -66.847046, 10.622882 ], [ -66.845581, 10.623248 ], [ -66.845047, 10.623545 ], [ -66.844589, 10.623292 ], [ -66.844101, 10.623567 ], [ -66.843247, 10.623910 ], [ -66.842430, 10.624115 ], [ -66.842545, 10.625309 ], [ -66.845505, 10.626231 ], [ -66.842171, 10.625859 ], [ -66.841599, 10.624550 ], [ -66.840813, 10.624596 ], [ -66.837921, 10.622435 ], [ -66.837837, 10.621426 ], [ -66.837120, 10.620828 ], [ -66.836609, 10.620254 ], [ -66.835709, 10.619679 ], [ -66.835014, 10.619379 ], [ -66.834274, 10.618850 ], [ -66.833816, 10.618505 ], [ -66.832848, 10.617999 ], [ -66.831985, 10.617631 ], [ -66.830048, 10.617353 ], [ -66.829163, 10.617307 ], [ -66.828399, 10.617099 ], [ -66.827454, 10.616776 ], [ -66.826134, 10.616753 ], [ -66.825600, 10.616659 ], [ -66.825050, 10.616636 ], [ -66.823891, 10.616796 ], [ -66.822983, 10.616978 ], [ -66.822434, 10.617045 ], [ -66.821739, 10.616930 ], [ -66.820976, 10.616769 ], [ -66.820602, 10.616470 ], [ -66.820190, 10.616078 ], [ -66.819306, 10.615871 ], [ -66.818825, 10.615985 ], [ -66.818268, 10.615870 ], [ -66.818642, 10.615458 ], [ -66.819031, 10.614930 ], [ -66.818062, 10.614792 ], [ -66.817299, 10.614790 ], [ -66.816948, 10.615134 ], [ -66.817368, 10.615571 ], [ -66.817734, 10.616030 ], [ -66.817108, 10.616097 ], [ -66.816574, 10.615868 ], [ -66.816208, 10.615385 ], [ -66.815308, 10.614948 ], [ -66.814545, 10.614878 ], [ -66.812714, 10.614877 ], [ -66.811791, 10.614852 ], [ -66.810982, 10.614851 ], [ -66.809822, 10.614552 ], [ -66.809265, 10.614550 ], [ -66.808685, 10.614664 ], [ -66.807762, 10.614617 ], [ -66.807045, 10.614548 ], [ -66.806557, 10.614477 ], [ -66.805702, 10.614500 ], [ -66.805244, 10.613902 ], [ -66.804733, 10.613489 ], [ -66.804039, 10.613717 ], [ -66.803528, 10.614222 ], [ -66.802719, 10.614565 ], [ -66.801743, 10.614930 ], [ -66.800820, 10.615045 ], [ -66.800705, 10.615025 ], [ -66.799545, 10.614813 ], [ -66.798363, 10.614582 ], [ -66.797783, 10.614741 ], [ -66.796814, 10.614579 ], [ -66.796280, 10.614625 ], [ -66.795403, 10.614486 ], [ -66.794800, 10.614531 ], [ -66.793503, 10.614666 ], [ -66.792526, 10.614919 ], [ -66.791786, 10.615284 ], [ -66.790932, 10.615558 ], [ -66.790237, 10.615442 ], [ -66.789589, 10.615441 ], [ -66.788849, 10.615417 ], [ -66.788361, 10.615577 ], [ -66.787483, 10.615897 ], [ -66.786690, 10.616035 ], [ -66.785584, 10.616055 ], [ -66.784775, 10.616032 ], [ -66.784172, 10.616076 ], [ -66.783363, 10.616190 ], [ -66.782410, 10.616694 ], [ -66.781342, 10.616968 ], [ -66.780350, 10.617356 ], [ -66.779655, 10.617332 ], [ -66.778473, 10.616756 ], [ -66.776787, 10.616755 ], [ -66.776253, 10.616799 ], [ -66.775162, 10.617532 ], [ -66.774536, 10.617990 ], [ -66.774002, 10.618151 ], [ -66.773010, 10.617620 ], [ -66.771828, 10.617091 ], [ -66.771316, 10.617136 ], [ -66.769234, 10.617501 ], [ -66.768265, 10.617568 ], [ -66.767616, 10.617728 ], [ -66.766945, 10.618002 ], [ -66.766365, 10.618621 ], [ -66.765388, 10.619331 ], [ -66.764877, 10.619789 ], [ -66.764206, 10.620109 ], [ -66.763489, 10.619902 ], [ -66.762840, 10.619901 ], [ -66.761917, 10.619234 ], [ -66.761154, 10.619233 ], [ -66.759765, 10.618864 ], [ -66.759094, 10.618863 ], [ -66.757126, 10.618608 ], [ -66.755737, 10.618560 ], [ -66.754768, 10.618765 ], [ -66.753494, 10.618992 ], [ -66.752846, 10.619289 ], [ -66.752266, 10.619357 ], [ -66.750786, 10.619103 ], [ -66.749672, 10.619537 ], [ -66.748672, 10.619904 ], [ -66.747864, 10.619970 ], [ -66.747101, 10.620061 ], [ -66.746544, 10.620106 ], [ -66.745666, 10.620288 ], [ -66.744736, 10.620287 ], [ -66.743919, 10.621616 ], [ -66.743851, 10.622396 ], [ -66.742828, 10.624162 ], [ -66.741852, 10.625171 ], [ -66.741783, 10.625652 ], [ -66.742592, 10.625768 ], [ -66.743073, 10.625792 ], [ -66.743515, 10.626067 ], [ -66.743538, 10.626573 ], [ -66.742493, 10.626456 ], [ -66.741173, 10.626684 ], [ -66.740456, 10.626958 ], [ -66.740013, 10.627646 ], [ -66.739388, 10.628218 ], [ -66.738457, 10.628584 ], [ -66.737808, 10.628767 ], [ -66.737236, 10.628606 ], [ -66.736702, 10.628283 ], [ -66.735451, 10.628258 ], [ -66.734573, 10.627890 ], [ -66.733811, 10.627337 ], [ -66.732910, 10.626624 ], [ -66.732239, 10.626486 ], [ -66.731384, 10.626209 ], [ -66.731247, 10.625223 ], [ -66.727669, 10.623954 ], [ -66.724640, 10.622940 ], [ -66.723343, 10.622800 ], [ -66.722138, 10.622753 ], [ -66.721283, 10.622683 ], [ -66.720429, 10.622681 ], [ -66.719826, 10.622955 ], [ -66.719032, 10.623230 ], [ -66.718224, 10.623343 ], [ -66.717827, 10.624742 ], [ -66.716736, 10.625819 ], [ -66.716110, 10.626230 ], [ -66.715385, 10.626895 ], [ -66.714943, 10.627490 ], [ -66.714317, 10.627789 ], [ -66.713371, 10.627971 ], [ -66.712631, 10.628061 ], [ -66.711266, 10.627921 ], [ -66.710823, 10.627713 ], [ -66.710174, 10.627529 ], [ -66.709022, 10.626747 ], [ -66.708679, 10.626242 ], [ -66.708145, 10.625575 ], [ -66.706947, 10.625160 ], [ -66.706062, 10.625158 ], [ -66.705345, 10.625203 ], [ -66.704285, 10.625500 ], [ -66.702934, 10.625957 ], [ -66.702293, 10.625635 ], [ -66.701805, 10.625473 ], [ -66.700462, 10.625494 ], [ -66.699654, 10.625401 ], [ -66.698654, 10.625904 ], [ -66.697845, 10.626201 ], [ -66.696686, 10.625946 ], [ -66.695763, 10.625578 ], [ -66.694466, 10.625735 ], [ -66.693451, 10.626056 ], [ -66.692703, 10.626353 ], [ -66.690918, 10.627038 ], [ -66.689743, 10.627036 ], [ -66.688767, 10.626574 ], [ -66.687538, 10.627009 ], [ -66.686478, 10.626823 ], [ -66.685577, 10.626340 ], [ -66.685066, 10.626133 ], [ -66.684532, 10.626178 ], [ -66.683121, 10.626199 ], [ -66.681984, 10.626839 ], [ -66.680687, 10.627204 ], [ -66.680061, 10.627317 ], [ -66.678772, 10.627086 ], [ -66.678146, 10.627039 ], [ -66.677383, 10.626877 ], [ -66.676781, 10.626739 ], [ -66.675789, 10.626415 ], [ -66.674927, 10.626299 ], [ -66.674164, 10.626297 ], [ -66.673607, 10.626411 ], [ -66.671158, 10.626109 ], [ -66.669975, 10.625992 ], [ -66.669029, 10.625830 ], [ -66.668106, 10.625713 ], [ -66.667389, 10.625483 ], [ -66.666367, 10.625435 ], [ -66.665489, 10.625181 ], [ -66.664475, 10.625155 ], [ -66.663658, 10.625247 ], [ -66.662987, 10.625704 ], [ -66.661804, 10.625793 ], [ -66.661255, 10.625655 ], [ -66.660469, 10.625608 ], [ -66.659698, 10.625881 ], [ -66.658821, 10.625972 ], [ -66.657822, 10.626040 ], [ -66.657013, 10.625831 ], [ -66.656387, 10.625761 ], [ -66.655373, 10.625805 ], [ -66.654282, 10.626147 ], [ -66.653496, 10.626421 ], [ -66.653076, 10.626741 ], [ -66.652496, 10.627016 ], [ -66.651550, 10.627197 ], [ -66.651039, 10.627312 ], [ -66.650368, 10.627425 ], [ -66.649811, 10.627653 ], [ -66.648842, 10.627491 ], [ -66.648216, 10.627007 ], [ -66.647545, 10.626823 ], [ -66.646248, 10.626890 ], [ -66.645691, 10.626981 ], [ -66.644676, 10.627277 ], [ -66.643768, 10.627688 ], [ -66.642632, 10.628030 ], [ -66.641754, 10.628098 ], [ -66.641220, 10.627958 ], [ -66.640503, 10.627797 ], [ -66.638885, 10.627748 ], [ -66.638352, 10.627930 ], [ -66.637474, 10.628180 ], [ -66.636940, 10.628226 ], [ -66.635643, 10.628659 ], [ -66.634743, 10.628704 ], [ -66.634163, 10.628772 ], [ -66.633629, 10.628862 ], [ -66.632866, 10.628815 ], [ -66.632012, 10.628813 ], [ -66.631264, 10.628880 ], [ -66.629509, 10.628878 ], [ -66.628372, 10.629013 ], [ -66.627792, 10.628966 ], [ -66.627030, 10.629010 ], [ -66.626266, 10.629238 ], [ -66.625595, 10.629466 ], [ -66.624924, 10.629672 ], [ -66.624275, 10.629785 ], [ -66.623138, 10.629898 ], [ -66.622513, 10.629827 ], [ -66.620941, 10.629596 ], [ -66.620155, 10.629433 ], [ -66.619575, 10.629272 ], [ -66.618858, 10.629271 ], [ -66.617981, 10.629039 ], [ -66.617310, 10.628945 ], [ -66.616707, 10.628876 ], [ -66.616127, 10.629104 ], [ -66.615158, 10.629607 ], [ -66.614433, 10.629835 ], [ -66.613419, 10.629673 ], [ -66.612221, 10.629028 ], [ -66.611550, 10.628775 ], [ -66.610344, 10.628748 ], [ -66.609345, 10.628839 ], [ -66.608375, 10.628699 ], [ -66.607521, 10.628537 ], [ -66.606964, 10.628581 ], [ -66.605187, 10.628188 ], [ -66.604538, 10.628416 ], [ -66.603424, 10.629193 ], [ -66.602890, 10.629514 ], [ -66.602241, 10.629444 ], [ -66.601036, 10.629580 ], [ -66.599716, 10.630265 ], [ -66.598602, 10.630262 ], [ -66.597908, 10.630216 ], [ -66.597076, 10.630305 ], [ -66.596214, 10.630625 ], [ -66.595428, 10.630761 ], [ -66.594734, 10.630507 ], [ -66.593788, 10.630276 ], [ -66.592629, 10.630067 ], [ -66.592011, 10.629997 ], [ -66.591499, 10.629950 ], [ -66.590385, 10.630086 ], [ -66.590042, 10.630405 ], [ -66.589806, 10.630841 ], [ -66.589478, 10.631392 ], [ -66.588943, 10.631758 ], [ -66.588295, 10.632031 ], [ -66.587257, 10.631823 ], [ -66.586632, 10.631729 ], [ -66.585594, 10.631177 ], [ -66.584091, 10.630876 ], [ -66.583557, 10.630645 ], [ -66.582146, 10.630366 ], [ -66.580086, 10.630500 ], [ -66.579040, 10.630499 ], [ -66.576523, 10.630608 ], [ -66.574951, 10.630421 ], [ -66.574417, 10.630420 ], [ -66.573418, 10.630899 ], [ -66.573135, 10.631335 ], [ -66.572792, 10.631793 ], [ -66.572212, 10.632044 ], [ -66.570664, 10.631558 ], [ -66.570198, 10.631261 ], [ -66.569206, 10.631304 ], [ -66.568581, 10.631646 ], [ -66.568001, 10.631990 ], [ -66.567398, 10.632379 ], [ -66.565941, 10.631824 ], [ -66.565063, 10.631272 ], [ -66.563927, 10.630926 ], [ -66.562729, 10.630877 ], [ -66.560325, 10.629817 ], [ -66.558929, 10.630226 ], [ -66.558540, 10.630524 ], [ -66.557632, 10.630796 ], [ -66.556244, 10.630680 ], [ -66.555412, 10.630242 ], [ -66.554398, 10.630217 ], [ -66.553955, 10.630445 ], [ -66.553352, 10.630742 ], [ -66.552566, 10.630878 ], [ -66.550949, 10.630692 ], [ -66.550461, 10.630736 ], [ -66.549484, 10.631238 ], [ -66.548561, 10.631581 ], [ -66.547813, 10.631762 ], [ -66.547264, 10.631853 ], [ -66.546379, 10.631805 ], [ -66.544899, 10.631413 ], [ -66.543999, 10.631410 ], [ -66.543488, 10.631823 ], [ -66.542427, 10.631958 ], [ -66.541870, 10.632071 ], [ -66.541267, 10.632277 ], [ -66.540733, 10.632414 ], [ -66.540291, 10.631999 ], [ -66.539764, 10.631907 ], [ -66.539390, 10.632456 ], [ -66.538833, 10.632569 ], [ -66.538414, 10.632317 ], [ -66.537674, 10.632406 ], [ -66.537285, 10.632704 ], [ -66.536705, 10.632610 ], [ -66.536011, 10.632907 ], [ -66.535683, 10.632563 ], [ -66.535133, 10.632034 ], [ -66.533676, 10.632030 ], [ -66.532356, 10.632211 ], [ -66.531265, 10.631841 ], [ -66.530708, 10.632000 ], [ -66.530128, 10.632252 ], [ -66.529183, 10.632341 ], [ -66.528557, 10.632180 ], [ -66.528091, 10.632385 ], [ -66.527214, 10.632292 ], [ -66.526734, 10.632290 ], [ -66.526085, 10.632426 ], [ -66.525291, 10.632470 ], [ -66.524872, 10.632472 ], [ -66.524483, 10.632468 ], [ -66.523628, 10.632054 ], [ -66.523117, 10.632580 ], [ -66.522491, 10.632832 ], [ -66.521751, 10.632968 ], [ -66.520660, 10.633218 ], [ -66.518944, 10.633740 ], [ -66.518112, 10.634152 ], [ -66.516953, 10.634608 ], [ -66.516144, 10.634446 ], [ -66.515358, 10.634191 ], [ -66.514877, 10.633915 ], [ -66.514366, 10.634213 ], [ -66.513878, 10.634578 ], [ -66.512856, 10.634484 ], [ -66.512184, 10.634253 ], [ -66.511376, 10.634182 ], [ -66.510849, 10.634090 ], [ -66.510315, 10.634341 ], [ -66.509483, 10.633925 ], [ -66.508141, 10.633442 ], [ -66.507286, 10.633439 ], [ -66.506821, 10.633553 ], [ -66.505966, 10.633528 ], [ -66.505341, 10.633687 ], [ -66.504433, 10.634718 ], [ -66.503967, 10.634946 ], [ -66.503502, 10.635151 ], [ -66.502838, 10.634714 ], [ -66.502304, 10.634505 ], [ -66.501404, 10.634183 ], [ -66.500709, 10.634296 ], [ -66.500061, 10.634501 ], [ -66.499504, 10.634545 ], [ -66.499573, 10.634173 ], [ -66.499199, 10.634108 ], [ -66.498825, 10.634111 ], [ -66.498551, 10.634207 ], [ -66.498154, 10.634119 ], [ -66.497803, 10.633962 ], [ -66.497414, 10.634058 ], [ -66.497230, 10.634196 ], [ -66.496719, 10.634339 ], [ -66.496414, 10.634205 ], [ -66.496063, 10.634209 ], [ -66.495743, 10.634327 ], [ -66.495415, 10.634375 ], [ -66.495026, 10.634471 ], [ -66.494675, 10.634589 ], [ -66.494492, 10.634683 ], [ -66.494171, 10.635077 ], [ -66.493774, 10.635264 ], [ -66.493591, 10.635082 ], [ -66.493355, 10.635085 ], [ -66.493103, 10.635156 ], [ -66.492752, 10.635228 ], [ -66.492523, 10.634954 ], [ -66.492172, 10.634637 ], [ -66.491608, 10.634643 ], [ -66.490494, 10.634746 ], [ -66.489456, 10.634962 ], [ -66.489105, 10.634806 ], [ -66.488991, 10.634623 ], [ -66.488571, 10.634603 ], [ -66.488129, 10.634608 ], [ -66.487846, 10.634634 ], [ -66.487289, 10.634571 ], [ -66.486847, 10.634231 ], [ -66.486519, 10.634050 ], [ -66.486290, 10.634007 ], [ -66.485985, 10.633964 ], [ -66.485779, 10.633850 ], [ -66.485519, 10.633785 ], [ -66.484802, 10.633792 ], [ -66.484589, 10.633863 ], [ -66.484314, 10.634048 ], [ -66.484131, 10.634142 ], [ -66.483826, 10.634214 ], [ -66.483414, 10.634196 ], [ -66.483154, 10.634199 ], [ -66.482338, 10.634069 ], [ -66.481918, 10.633752 ], [ -66.481644, 10.633638 ], [ -66.481407, 10.633526 ], [ -66.480919, 10.633532 ], [ -66.480667, 10.633512 ], [ -66.480385, 10.633307 ], [ -66.480194, 10.633125 ], [ -66.479820, 10.633015 ], [ -66.479500, 10.632949 ], [ -66.479035, 10.632609 ], [ -66.478355, 10.632363 ], [ -66.477539, 10.632211 ], [ -66.477074, 10.632216 ], [ -66.476654, 10.632127 ], [ -66.476311, 10.632040 ], [ -66.476006, 10.632111 ], [ -66.475754, 10.632113 ], [ -66.475334, 10.632002 ], [ -66.474983, 10.632258 ], [ -66.474686, 10.632308 ], [ -66.474449, 10.632217 ], [ -66.474266, 10.632174 ], [ -66.473969, 10.632315 ], [ -66.473618, 10.632363 ], [ -66.473129, 10.632369 ], [ -66.472992, 10.632577 ], [ -66.472786, 10.632854 ], [ -66.472420, 10.633111 ], [ -66.471748, 10.633232 ], [ -66.471512, 10.633372 ], [ -66.471146, 10.633536 ], [ -66.470955, 10.633585 ], [ -66.470680, 10.633702 ], [ -66.470337, 10.633981 ], [ -66.470177, 10.634096 ], [ -66.469826, 10.634444 ], [ -66.469620, 10.634584 ], [ -66.469269, 10.634587 ], [ -66.469017, 10.634683 ], [ -66.468620, 10.634341 ], [ -66.468414, 10.634343 ], [ -66.468178, 10.634415 ], [ -66.467949, 10.634555 ], [ -66.467697, 10.634741 ], [ -66.467484, 10.634744 ], [ -66.467277, 10.634470 ], [ -66.467133, 10.634311 ], [ -66.466850, 10.634221 ], [ -66.466576, 10.634178 ], [ -66.466270, 10.634158 ], [ -66.466041, 10.634046 ], [ -66.465530, 10.634256 ], [ -66.464882, 10.634080 ], [ -66.464043, 10.633607 ], [ -66.463295, 10.633706 ], [ -66.463035, 10.633409 ], [ -66.462456, 10.633254 ], [ -66.462196, 10.632982 ], [ -66.461945, 10.632847 ], [ -66.461525, 10.632850 ], [ -66.460846, 10.632581 ], [ -66.460708, 10.632353 ], [ -66.460358, 10.632127 ], [ -66.460007, 10.632131 ], [ -66.459541, 10.632112 ], [ -66.459198, 10.631954 ], [ -66.458939, 10.631934 ], [ -66.458496, 10.631939 ], [ -66.458336, 10.631825 ], [ -66.458076, 10.631828 ], [ -66.457848, 10.631945 ], [ -66.457382, 10.631766 ], [ -66.457123, 10.631745 ], [ -66.456802, 10.631658 ], [ -66.456337, 10.631661 ], [ -66.455895, 10.631964 ], [ -66.455666, 10.632082 ], [ -66.455177, 10.632247 ], [ -66.454948, 10.632386 ], [ -66.454628, 10.632666 ], [ -66.454537, 10.632827 ], [ -66.454231, 10.633014 ], [ -66.453979, 10.633016 ], [ -66.453751, 10.633294 ], [ -66.453522, 10.633433 ], [ -66.453308, 10.633481 ], [ -66.453056, 10.633484 ], [ -66.452751, 10.633579 ], [ -66.452477, 10.633582 ], [ -66.452263, 10.633538 ], [ -66.452057, 10.633540 ], [ -66.451637, 10.633498 ], [ -66.451409, 10.633363 ], [ -66.450478, 10.633371 ], [ -66.450127, 10.633352 ], [ -66.449966, 10.633170 ], [ -66.449661, 10.633265 ], [ -66.448990, 10.633271 ], [ -66.448662, 10.632999 ], [ -66.448036, 10.632799 ], [ -66.447266, 10.632393 ], [ -66.446770, 10.632031 ], [ -66.446327, 10.631576 ], [ -66.445671, 10.631284 ], [ -66.445228, 10.631150 ], [ -66.444763, 10.630924 ], [ -66.443832, 10.630589 ], [ -66.443298, 10.630342 ], [ -66.442970, 10.630392 ], [ -66.442459, 10.630145 ], [ -66.441834, 10.629828 ], [ -66.441063, 10.629860 ], [ -66.440620, 10.629771 ], [ -66.439903, 10.629849 ], [ -66.439713, 10.629620 ], [ -66.439201, 10.629624 ], [ -66.438736, 10.629423 ], [ -66.437920, 10.629133 ], [ -66.436623, 10.629145 ], [ -66.436066, 10.629082 ], [ -66.435417, 10.629226 ], [ -66.435066, 10.629230 ], [ -66.434700, 10.629347 ], [ -66.434303, 10.629420 ], [ -66.433540, 10.629588 ], [ -66.433289, 10.630118 ], [ -66.433334, 10.630508 ], [ -66.433174, 10.630649 ], [ -66.432922, 10.631133 ], [ -66.432465, 10.631367 ], [ -66.431908, 10.631257 ], [ -66.431511, 10.631467 ], [ -66.431022, 10.631472 ], [ -66.430351, 10.631341 ], [ -66.430000, 10.631413 ], [ -66.429657, 10.631692 ], [ -66.429100, 10.631698 ], [ -66.428680, 10.631311 ], [ -66.427490, 10.631070 ], [ -66.426933, 10.631191 ], [ -66.426468, 10.631126 ], [ -66.425980, 10.631131 ], [ -66.425545, 10.631249 ], [ -66.425262, 10.631276 ], [ -66.425057, 10.631277 ], [ -66.424446, 10.631124 ], [ -66.424126, 10.630919 ], [ -66.423798, 10.631014 ], [ -66.423149, 10.631043 ], [ -66.422844, 10.630863 ], [ -66.422241, 10.630639 ], [ -66.421959, 10.630733 ], [ -66.421432, 10.630946 ], [ -66.421104, 10.630673 ], [ -66.420753, 10.630585 ], [ -66.420059, 10.630683 ], [ -66.419594, 10.630826 ], [ -66.419014, 10.630992 ], [ -66.418572, 10.631134 ], [ -66.418320, 10.631320 ], [ -66.418159, 10.631413 ], [ -66.417717, 10.631418 ], [ -66.417442, 10.631467 ], [ -66.417091, 10.631585 ], [ -66.416679, 10.631749 ], [ -66.416420, 10.631867 ], [ -66.416031, 10.632009 ], [ -66.415703, 10.632103 ], [ -66.415573, 10.632632 ], [ -66.415550, 10.632908 ], [ -66.415459, 10.633390 ], [ -66.415184, 10.634059 ], [ -66.414681, 10.634340 ], [ -66.413979, 10.634140 ], [ -66.413773, 10.634072 ], [ -66.413513, 10.634236 ], [ -66.413010, 10.634241 ], [ -66.412727, 10.633899 ], [ -66.412445, 10.633719 ], [ -66.411934, 10.633884 ], [ -66.411675, 10.633725 ], [ -66.411354, 10.633385 ], [ -66.410812, 10.633389 ], [ -66.410492, 10.633439 ], [ -66.410141, 10.633557 ], [ -66.409958, 10.633581 ], [ -66.409515, 10.633334 ], [ -66.409096, 10.633177 ], [ -66.408676, 10.633250 ], [ -66.408119, 10.633256 ], [ -66.407631, 10.633214 ], [ -66.406937, 10.632922 ], [ -66.406280, 10.632585 ], [ -66.405975, 10.632174 ], [ -66.405068, 10.631769 ], [ -66.404556, 10.631706 ], [ -66.403999, 10.631436 ], [ -66.403481, 10.631027 ], [ -66.403130, 10.630687 ], [ -66.402893, 10.630321 ], [ -66.402710, 10.630116 ], [ -66.402382, 10.629889 ], [ -66.402100, 10.629824 ], [ -66.401680, 10.629827 ], [ -66.401337, 10.629601 ], [ -66.400795, 10.629492 ], [ -66.400238, 10.629337 ], [ -66.399727, 10.629112 ], [ -66.399330, 10.628840 ], [ -66.399002, 10.628407 ], [ -66.398392, 10.628069 ], [ -66.397835, 10.627799 ], [ -66.397301, 10.627665 ], [ -66.396393, 10.627308 ], [ -66.395577, 10.627178 ], [ -66.394997, 10.627069 ], [ -66.393669, 10.626508 ], [ -66.392944, 10.626377 ], [ -66.392624, 10.626356 ], [ -66.391945, 10.626042 ], [ -66.391197, 10.625659 ], [ -66.390152, 10.625370 ], [ -66.389503, 10.625331 ], [ -66.388946, 10.625175 ], [ -66.387688, 10.624751 ], [ -66.386986, 10.624551 ], [ -66.386734, 10.624853 ], [ -66.385834, 10.625091 ], [ -66.384575, 10.624437 ], [ -66.383827, 10.624260 ], [ -66.383568, 10.624034 ], [ -66.382965, 10.624063 ], [ -66.382645, 10.624616 ], [ -66.382347, 10.624619 ], [ -66.381622, 10.624534 ], [ -66.380180, 10.623905 ], [ -66.379646, 10.623657 ], [ -66.379150, 10.623295 ], [ -66.378776, 10.622886 ], [ -66.378143, 10.622111 ], [ -66.377861, 10.621470 ], [ -66.377716, 10.621243 ], [ -66.377022, 10.620813 ], [ -66.376503, 10.620566 ], [ -66.376106, 10.620294 ], [ -66.374992, 10.619823 ], [ -66.374290, 10.619462 ], [ -66.373703, 10.618687 ], [ -66.372627, 10.618009 ], [ -66.371834, 10.617534 ], [ -66.370598, 10.616582 ], [ -66.370087, 10.616288 ], [ -66.369476, 10.616271 ], [ -66.368965, 10.615977 ], [ -66.368317, 10.615707 ], [ -66.366699, 10.614461 ], [ -66.365845, 10.614354 ], [ -66.365212, 10.614154 ], [ -66.363884, 10.613501 ], [ -66.363045, 10.613188 ], [ -66.361748, 10.613086 ], [ -66.361069, 10.613092 ], [ -66.360558, 10.613073 ], [ -66.359260, 10.612649 ], [ -66.358536, 10.612565 ], [ -66.357841, 10.612319 ], [ -66.357391, 10.612047 ], [ -66.356743, 10.612054 ], [ -66.356323, 10.611622 ], [ -66.355926, 10.611487 ], [ -66.355164, 10.611381 ], [ -66.354584, 10.611432 ], [ -66.354141, 10.611505 ], [ -66.353470, 10.611534 ], [ -66.352303, 10.611109 ], [ -66.351273, 10.610498 ], [ -66.350227, 10.610255 ], [ -66.349113, 10.610015 ], [ -66.348411, 10.609837 ], [ -66.347321, 10.609940 ], [ -66.346283, 10.609949 ], [ -66.345932, 10.610480 ], [ -66.345429, 10.610600 ], [ -66.345054, 10.610949 ], [ -66.344757, 10.611341 ], [ -66.344551, 10.611549 ], [ -66.344109, 10.611783 ], [ -66.343468, 10.612019 ], [ -66.342934, 10.612023 ], [ -66.341095, 10.612109 ], [ -66.340218, 10.612417 ], [ -66.339775, 10.612604 ], [ -66.339081, 10.612795 ], [ -66.338760, 10.612981 ], [ -66.338249, 10.613377 ], [ -66.337509, 10.613361 ], [ -66.336861, 10.613367 ], [ -66.336281, 10.613395 ], [ -66.335487, 10.613449 ], [ -66.334908, 10.613706 ], [ -66.334656, 10.613984 ], [ -66.333946, 10.614634 ], [ -66.333107, 10.614733 ], [ -66.332550, 10.614693 ], [ -66.332153, 10.614696 ], [ -66.331856, 10.614883 ], [ -66.331139, 10.615096 ], [ -66.330376, 10.615241 ], [ -66.330185, 10.615266 ], [ -66.329887, 10.615337 ], [ -66.329521, 10.615617 ], [ -66.329170, 10.616078 ], [ -66.328873, 10.616220 ], [ -66.328621, 10.616451 ], [ -66.328110, 10.616823 ], [ -66.327675, 10.616919 ], [ -66.327301, 10.616923 ], [ -66.326813, 10.617020 ], [ -66.326027, 10.617556 ], [ -66.325546, 10.617812 ], [ -66.325012, 10.617978 ], [ -66.324799, 10.617979 ], [ -66.324379, 10.617891 ], [ -66.323570, 10.617807 ], [ -66.322548, 10.618024 ], [ -66.322090, 10.618235 ], [ -66.321182, 10.618518 ], [ -66.320442, 10.618710 ], [ -66.319260, 10.618881 ], [ -66.318543, 10.619002 ], [ -66.317589, 10.618965 ], [ -66.317428, 10.619081 ], [ -66.316498, 10.619366 ], [ -66.315857, 10.619624 ], [ -66.315163, 10.619929 ], [ -66.314232, 10.620076 ], [ -66.313843, 10.620515 ], [ -66.313263, 10.620957 ], [ -66.313080, 10.621120 ], [ -66.312851, 10.621420 ], [ -66.312569, 10.621668 ], [ -66.311668, 10.621637 ], [ -66.310944, 10.621323 ], [ -66.310547, 10.620983 ], [ -66.310242, 10.620687 ], [ -66.309914, 10.620231 ], [ -66.309654, 10.620004 ], [ -66.309448, 10.619776 ], [ -66.309143, 10.619573 ], [ -66.308792, 10.619254 ], [ -66.308510, 10.618958 ], [ -66.308044, 10.618642 ], [ -66.307976, 10.618298 ], [ -66.308082, 10.617907 ], [ -66.308220, 10.617606 ], [ -66.308243, 10.617239 ], [ -66.308144, 10.616735 ], [ -66.307884, 10.616393 ], [ -66.307701, 10.616119 ], [ -66.307648, 10.615638 ], [ -66.307831, 10.615406 ], [ -66.307991, 10.615268 ], [ -66.308411, 10.614943 ], [ -66.308800, 10.614709 ], [ -66.309219, 10.614361 ], [ -66.309494, 10.613922 ], [ -66.309723, 10.613622 ], [ -66.309807, 10.613230 ], [ -66.309738, 10.612864 ], [ -66.309593, 10.612337 ], [ -66.309425, 10.611834 ], [ -66.309357, 10.611306 ], [ -66.309258, 10.610986 ], [ -66.309158, 10.610458 ], [ -66.309112, 10.609908 ], [ -66.309265, 10.609426 ], [ -66.309585, 10.608711 ], [ -66.309791, 10.608479 ], [ -66.310623, 10.607989 ], [ -66.310997, 10.607595 ], [ -66.311012, 10.607090 ], [ -66.310844, 10.606771 ], [ -66.310570, 10.606566 ], [ -66.310287, 10.606087 ], [ -66.310211, 10.605582 ], [ -66.310142, 10.605331 ], [ -66.310181, 10.604803 ], [ -66.310547, 10.604225 ], [ -66.310966, 10.604014 ], [ -66.311333, 10.603667 ], [ -66.311401, 10.603322 ], [ -66.311119, 10.602659 ], [ -66.311112, 10.602108 ], [ -66.310966, 10.601673 ], [ -66.310898, 10.601215 ], [ -66.310547, 10.600988 ], [ -66.310311, 10.600967 ], [ -66.310104, 10.601015 ], [ -66.309921, 10.601017 ], [ -66.309776, 10.600766 ], [ -66.309685, 10.600493 ], [ -66.309677, 10.600124 ], [ -66.309609, 10.599781 ], [ -66.309395, 10.599347 ], [ -66.309204, 10.598889 ], [ -66.309158, 10.598569 ], [ -66.309059, 10.598340 ], [ -66.309059, 10.597996 ], [ -66.309120, 10.597559 ], [ -66.309234, 10.597282 ], [ -66.309395, 10.597074 ], [ -66.309609, 10.596843 ], [ -66.309860, 10.596611 ], [ -66.310204, 10.596400 ], [ -66.310463, 10.596284 ], [ -66.310669, 10.596212 ], [ -66.310921, 10.596004 ], [ -66.311150, 10.595520 ], [ -66.311379, 10.595357 ], [ -66.311752, 10.595056 ], [ -66.311867, 10.594893 ], [ -66.312088, 10.594340 ], [ -66.311463, 10.593956 ], [ -66.310951, 10.593961 ], [ -66.310440, 10.593805 ], [ -66.310204, 10.593715 ], [ -66.309906, 10.593672 ], [ -66.309250, 10.593357 ], [ -66.309059, 10.592945 ], [ -66.309387, 10.592575 ], [ -66.309082, 10.592165 ], [ -66.308777, 10.591939 ], [ -66.308563, 10.591756 ], [ -66.308212, 10.591531 ], [ -66.308029, 10.591302 ], [ -66.307953, 10.591120 ], [ -66.307976, 10.590844 ], [ -66.308228, 10.590520 ], [ -66.308693, 10.590149 ], [ -66.309082, 10.589708 ], [ -66.309380, 10.589454 ], [ -66.309753, 10.589083 ], [ -66.309837, 10.588899 ], [ -66.309929, 10.588392 ], [ -66.309769, 10.588164 ], [ -66.309578, 10.587822 ], [ -66.309296, 10.587595 ], [ -66.309135, 10.587413 ], [ -66.308761, 10.587348 ], [ -66.308136, 10.588019 ], [ -66.307976, 10.587906 ], [ -66.307854, 10.587585 ], [ -66.307991, 10.586873 ], [ -66.308311, 10.586525 ], [ -66.308846, 10.586107 ], [ -66.309212, 10.585462 ], [ -66.309555, 10.585068 ], [ -66.310059, 10.584512 ], [ -66.310814, 10.583518 ], [ -66.311234, 10.582894 ], [ -66.311501, 10.582317 ], [ -66.311501, 10.582042 ], [ -66.311798, 10.581167 ], [ -66.311859, 10.580546 ], [ -66.311882, 10.580133 ], [ -66.312012, 10.579236 ], [ -66.311913, 10.578504 ], [ -66.311790, 10.577724 ], [ -66.311577, 10.576808 ], [ -66.311523, 10.576166 ], [ -66.311569, 10.575729 ], [ -66.311790, 10.575062 ], [ -66.312164, 10.574782 ], [ -66.312805, 10.574454 ], [ -66.313293, 10.573922 ], [ -66.313477, 10.573507 ], [ -66.313767, 10.572656 ], [ -66.313767, 10.572127 ], [ -66.313713, 10.571417 ], [ -66.313797, 10.570910 ], [ -66.313988, 10.570680 ], [ -66.314400, 10.570354 ], [ -66.314720, 10.570282 ], [ -66.315460, 10.569770 ], [ -66.315811, 10.569653 ], [ -66.316315, 10.569325 ], [ -66.316635, 10.568680 ], [ -66.316635, 10.568382 ], [ -66.316887, 10.567828 ], [ -66.317184, 10.567481 ], [ -66.317642, 10.566995 ], [ -66.318192, 10.566209 ], [ -66.318283, 10.566049 ], [ -66.318306, 10.565451 ], [ -66.317810, 10.564607 ], [ -66.317360, 10.563944 ], [ -66.317192, 10.563326 ], [ -66.317192, 10.562570 ], [ -66.317627, 10.562381 ], [ -66.317993, 10.561851 ], [ -66.318413, 10.561570 ], [ -66.318985, 10.561060 ], [ -66.319984, 10.560799 ], [ -66.320328, 10.560611 ], [ -66.320511, 10.560266 ], [ -66.320511, 10.559737 ], [ -66.320434, 10.559004 ], [ -66.320175, 10.558340 ], [ -66.319893, 10.557907 ], [ -66.319580, 10.557405 ], [ -66.319275, 10.556879 ], [ -66.319138, 10.556353 ], [ -66.319176, 10.555779 ], [ -66.319656, 10.555453 ], [ -66.320122, 10.554874 ], [ -66.320763, 10.554043 ], [ -66.320946, 10.553673 ], [ -66.320778, 10.553308 ], [ -66.320541, 10.552897 ], [ -66.320282, 10.552371 ], [ -66.320442, 10.551796 ], [ -66.320603, 10.551542 ], [ -66.320526, 10.551083 ], [ -66.320412, 10.550855 ], [ -66.320175, 10.550742 ], [ -66.319786, 10.550746 ], [ -66.319412, 10.550818 ], [ -66.319061, 10.550684 ], [ -66.319107, 10.550293 ], [ -66.319267, 10.549856 ], [ -66.319100, 10.549512 ], [ -66.318657, 10.549265 ], [ -66.318352, 10.549152 ], [ -66.317863, 10.549111 ], [ -66.317520, 10.548884 ], [ -66.317772, 10.548676 ], [ -66.318001, 10.548261 ], [ -66.318062, 10.547778 ], [ -66.317901, 10.547413 ], [ -66.317688, 10.547116 ], [ -66.317451, 10.546957 ], [ -66.317055, 10.546662 ], [ -66.316681, 10.546322 ], [ -66.316338, 10.546439 ], [ -66.315918, 10.546397 ], [ -66.315399, 10.545759 ], [ -66.315231, 10.545050 ], [ -66.315132, 10.544545 ], [ -66.314644, 10.543701 ], [ -66.314148, 10.542948 ], [ -66.313743, 10.542217 ], [ -66.313484, 10.541417 ], [ -66.313408, 10.540866 ], [ -66.313194, 10.540272 ], [ -66.312935, 10.539471 ], [ -66.313141, 10.539376 ], [ -66.313255, 10.538779 ], [ -66.312782, 10.538233 ], [ -66.312576, 10.538119 ], [ -66.312363, 10.537640 ], [ -66.312149, 10.536954 ], [ -66.311958, 10.536175 ], [ -66.312157, 10.535347 ], [ -66.312195, 10.534680 ], [ -66.312591, 10.534171 ], [ -66.312889, 10.533710 ], [ -66.313255, 10.533086 ], [ -66.313713, 10.532898 ], [ -66.314247, 10.532411 ], [ -66.314728, 10.531878 ], [ -66.315056, 10.531738 ], [ -66.315674, 10.531365 ], [ -66.316994, 10.531168 ], [ -66.317550, 10.531140 ], [ -66.318779, 10.530647 ], [ -66.319473, 10.530525 ], [ -66.320351, 10.530219 ], [ -66.321213, 10.529752 ], [ -66.322044, 10.529262 ], [ -66.322456, 10.529006 ], [ -66.323524, 10.528651 ], [ -66.323891, 10.528647 ], [ -66.324585, 10.528182 ], [ -66.324837, 10.528042 ], [ -66.325256, 10.527854 ], [ -66.325714, 10.527596 ], [ -66.326157, 10.527387 ], [ -66.326637, 10.527060 ], [ -66.326988, 10.526804 ], [ -66.327866, 10.526314 ], [ -66.328018, 10.526158 ], [ -66.328163, 10.526013 ], [ -66.328415, 10.525849 ], [ -66.328720, 10.525618 ], [ -66.329201, 10.525383 ], [ -66.329529, 10.525771 ], [ -66.329880, 10.526112 ], [ -66.330604, 10.526771 ], [ -66.331077, 10.527134 ], [ -66.331497, 10.527428 ], [ -66.331680, 10.527770 ], [ -66.332573, 10.528290 ], [ -66.333336, 10.528558 ], [ -66.333969, 10.528873 ], [ -66.334221, 10.528985 ], [ -66.334969, 10.529184 ], [ -66.335388, 10.529113 ], [ -66.336151, 10.529037 ], [ -66.337128, 10.529026 ], [ -66.337311, 10.529094 ], [ -66.337753, 10.529136 ], [ -66.338333, 10.529107 ], [ -66.338776, 10.528942 ], [ -66.340416, 10.528743 ], [ -66.341393, 10.528527 ], [ -66.342384, 10.528196 ], [ -66.342712, 10.528170 ], [ -66.343109, 10.528120 ], [ -66.343826, 10.528113 ], [ -66.344269, 10.528247 ], [ -66.344872, 10.528357 ], [ -66.345070, 10.528467 ], [ -66.345482, 10.528694 ], [ -66.345993, 10.529172 ], [ -66.346344, 10.529582 ], [ -66.346443, 10.529880 ], [ -66.346726, 10.530313 ], [ -66.346908, 10.530839 ], [ -66.346939, 10.531206 ], [ -66.347199, 10.531984 ], [ -66.347321, 10.532465 ], [ -66.347672, 10.533128 ], [ -66.347679, 10.533564 ], [ -66.347778, 10.534298 ], [ -66.347878, 10.534939 ], [ -66.348160, 10.535579 ], [ -66.348587, 10.536769 ], [ -66.348968, 10.537705 ], [ -66.349510, 10.538505 ], [ -66.349930, 10.538937 ], [ -66.350166, 10.539371 ], [ -66.351265, 10.540026 ], [ -66.351822, 10.540731 ], [ -66.352455, 10.541300 ], [ -66.352989, 10.541593 ], [ -66.353996, 10.542019 ], [ -66.354873, 10.542241 ], [ -66.356110, 10.542389 ], [ -66.357132, 10.542449 ], [ -66.358177, 10.542600 ], [ -66.359200, 10.542796 ], [ -66.359733, 10.543067 ], [ -66.361290, 10.543258 ], [ -66.362152, 10.543181 ], [ -66.362495, 10.543109 ], [ -66.363449, 10.542733 ], [ -66.364395, 10.542424 ], [ -66.365021, 10.542167 ], [ -66.365555, 10.541794 ], [ -66.367035, 10.541183 ], [ -66.367683, 10.541017 ], [ -66.368652, 10.540732 ], [ -66.369743, 10.540881 ], [ -66.370323, 10.540922 ], [ -66.371277, 10.541051 ], [ -66.372162, 10.541272 ], [ -66.372856, 10.541265 ], [ -66.373436, 10.541351 ], [ -66.374275, 10.541551 ], [ -66.375534, 10.541652 ], [ -66.376320, 10.541576 ], [ -66.376900, 10.541455 ], [ -66.377640, 10.541426 ], [ -66.378243, 10.541282 ], [ -66.379127, 10.541090 ], [ -66.379845, 10.541015 ], [ -66.380928, 10.540683 ], [ -66.382042, 10.540282 ], [ -66.382996, 10.540135 ], [ -66.384010, 10.540055 ], [ -66.384941, 10.540048 ], [ -66.385796, 10.539901 ], [ -66.386818, 10.539868 ], [ -66.387375, 10.539634 ], [ -66.387863, 10.539536 ], [ -66.388466, 10.539347 ], [ -66.389778, 10.538691 ], [ -66.390594, 10.538431 ], [ -66.391029, 10.538036 ], [ -66.391632, 10.537847 ], [ -66.392563, 10.537839 ], [ -66.392883, 10.537950 ], [ -66.393417, 10.537991 ], [ -66.393974, 10.538053 ], [ -66.394768, 10.538367 ], [ -66.395073, 10.538526 ], [ -66.395302, 10.538615 ], [ -66.395821, 10.538863 ], [ -66.396492, 10.539132 ], [ -66.396820, 10.539518 ], [ -66.397011, 10.539655 ], [ -66.397171, 10.539791 ], [ -66.397636, 10.540108 ], [ -66.398247, 10.540355 ], [ -66.398941, 10.540577 ], [ -66.399155, 10.540529 ], [ -66.399360, 10.540366 ], [ -66.400307, 10.540174 ], [ -66.401100, 10.539914 ], [ -66.401764, 10.539678 ], [ -66.402184, 10.539857 ], [ -66.402695, 10.539898 ], [ -66.403770, 10.540232 ], [ -66.404442, 10.540662 ], [ -66.405144, 10.540862 ], [ -66.406120, 10.541196 ], [ -66.406845, 10.541511 ], [ -66.407333, 10.541850 ], [ -66.408058, 10.542119 ], [ -66.408844, 10.542364 ], [ -66.409271, 10.542704 ], [ -66.409622, 10.542953 ], [ -66.410393, 10.543473 ], [ -66.410645, 10.543816 ], [ -66.411186, 10.544270 ], [ -66.411583, 10.544541 ], [ -66.412003, 10.544951 ], [ -66.412911, 10.545423 ], [ -66.413498, 10.545762 ], [ -66.414238, 10.545870 ], [ -66.414474, 10.545867 ], [ -66.414887, 10.545886 ], [ -66.415260, 10.545882 ], [ -66.415566, 10.545834 ], [ -66.416374, 10.545756 ], [ -66.417374, 10.545517 ], [ -66.418182, 10.545555 ], [ -66.418602, 10.545712 ], [ -66.419418, 10.545956 ], [ -66.420044, 10.545858 ], [ -66.421227, 10.545480 ], [ -66.422264, 10.545378 ], [ -66.423378, 10.544931 ], [ -66.424233, 10.544647 ], [ -66.425201, 10.543902 ], [ -66.425453, 10.543442 ], [ -66.425865, 10.542565 ], [ -66.426094, 10.542218 ], [ -66.426666, 10.541593 ], [ -66.427101, 10.540992 ], [ -66.427078, 10.540648 ], [ -66.427322, 10.539819 ], [ -66.427948, 10.539308 ], [ -66.428520, 10.538475 ], [ -66.429237, 10.537848 ], [ -66.429466, 10.537548 ], [ -66.430504, 10.537056 ], [ -66.431015, 10.537211 ], [ -66.432525, 10.537059 ], [ -66.433083, 10.537169 ], [ -66.433846, 10.537161 ], [ -66.434265, 10.536859 ], [ -66.435074, 10.536506 ], [ -66.435562, 10.536455 ], [ -66.436165, 10.536380 ], [ -66.436768, 10.536237 ], [ -66.437157, 10.536163 ], [ -66.437973, 10.536088 ], [ -66.438362, 10.536014 ], [ -66.438919, 10.535894 ], [ -66.439362, 10.535592 ], [ -66.439796, 10.535358 ], [ -66.440285, 10.535237 ], [ -66.440704, 10.535166 ], [ -66.441070, 10.534908 ], [ -66.441597, 10.534352 ], [ -66.441803, 10.534076 ], [ -66.442108, 10.533751 ], [ -66.443054, 10.533075 ], [ -66.444420, 10.532833 ], [ -66.445282, 10.533283 ], [ -66.445755, 10.533967 ], [ -66.446198, 10.534652 ], [ -66.446831, 10.535518 ], [ -66.447517, 10.536613 ], [ -66.447662, 10.537209 ], [ -66.448067, 10.538490 ], [ -66.448403, 10.539313 ], [ -66.448707, 10.539769 ], [ -66.449295, 10.540476 ], [ -66.450157, 10.541293 ], [ -66.451088, 10.541882 ], [ -66.451630, 10.542197 ], [ -66.452332, 10.542649 ], [ -66.452889, 10.542966 ], [ -66.453796, 10.543553 ], [ -66.454613, 10.543890 ], [ -66.454964, 10.544024 ], [ -66.455635, 10.543857 ], [ -66.456169, 10.543668 ], [ -66.456978, 10.543063 ], [ -66.457504, 10.542576 ], [ -66.457848, 10.541975 ], [ -66.458031, 10.541560 ], [ -66.458557, 10.540936 ], [ -66.458855, 10.540634 ], [ -66.459457, 10.540169 ], [ -66.459915, 10.539338 ], [ -66.460350, 10.539035 ], [ -66.460861, 10.538846 ], [ -66.461441, 10.538840 ], [ -66.462440, 10.539083 ], [ -66.463905, 10.539412 ], [ -66.464584, 10.539659 ], [ -66.465073, 10.539722 ], [ -66.465782, 10.539165 ], [ -66.466682, 10.538214 ], [ -66.466934, 10.538029 ], [ -66.467140, 10.537247 ], [ -66.467575, 10.536644 ], [ -66.468353, 10.535971 ], [ -66.469231, 10.535112 ], [ -66.469383, 10.534999 ], [ -66.469574, 10.534857 ], [ -66.470390, 10.534643 ], [ -66.470856, 10.534729 ], [ -66.471275, 10.535024 ], [ -66.471947, 10.535361 ], [ -66.472137, 10.535635 ], [ -66.472610, 10.536274 ], [ -66.473282, 10.536818 ], [ -66.473610, 10.537205 ], [ -66.474617, 10.537792 ], [ -66.476089, 10.538581 ], [ -66.477020, 10.538869 ], [ -66.478111, 10.538928 ], [ -66.478600, 10.538878 ], [ -66.478943, 10.538874 ], [ -66.479691, 10.539050 ], [ -66.481568, 10.539284 ], [ -66.482712, 10.539616 ], [ -66.484276, 10.540267 ], [ -66.484665, 10.540332 ], [ -66.485573, 10.540415 ], [ -66.486549, 10.540451 ], [ -66.487038, 10.540515 ], [ -66.487732, 10.540646 ], [ -66.488083, 10.540642 ], [ -66.488709, 10.540612 ], [ -66.489357, 10.540607 ], [ -66.489822, 10.540487 ], [ -66.490776, 10.540638 ], [ -66.491081, 10.540635 ], [ -66.491936, 10.540718 ], [ -66.492683, 10.541124 ], [ -66.493263, 10.541326 ], [ -66.493683, 10.541574 ], [ -66.494125, 10.541730 ], [ -66.494759, 10.541999 ], [ -66.495338, 10.542429 ], [ -66.495506, 10.542956 ], [ -66.495796, 10.543687 ], [ -66.496269, 10.544623 ], [ -66.496460, 10.545357 ], [ -66.496605, 10.545792 ], [ -66.497025, 10.546453 ], [ -66.497330, 10.546863 ], [ -66.497727, 10.547318 ], [ -66.498268, 10.547542 ], [ -66.498688, 10.547699 ], [ -66.499130, 10.547901 ], [ -66.499504, 10.548150 ], [ -66.499687, 10.548218 ], [ -66.499878, 10.548238 ], [ -66.500054, 10.549476 ], [ -66.500542, 10.549614 ], [ -66.501373, 10.550165 ], [ -66.501999, 10.550489 ], [ -66.502662, 10.550765 ], [ -66.504165, 10.551526 ], [ -66.505112, 10.551804 ], [ -66.505668, 10.551943 ], [ -66.506157, 10.551990 ], [ -66.506760, 10.551922 ], [ -66.507218, 10.551785 ], [ -66.507660, 10.551579 ], [ -66.508843, 10.551375 ], [ -66.510002, 10.551378 ], [ -66.510689, 10.551426 ], [ -66.511452, 10.551795 ], [ -66.512512, 10.552463 ], [ -66.512932, 10.552762 ], [ -66.513344, 10.553153 ], [ -66.514107, 10.553728 ], [ -66.514710, 10.554096 ], [ -66.515259, 10.554349 ], [ -66.516670, 10.554399 ], [ -66.517136, 10.554262 ], [ -66.518249, 10.554127 ], [ -66.519401, 10.554130 ], [ -66.520630, 10.554178 ], [ -66.522225, 10.554319 ], [ -66.522690, 10.554435 ], [ -66.523476, 10.554597 ], [ -66.524605, 10.554852 ], [ -66.525070, 10.555060 ], [ -66.525925, 10.555474 ], [ -66.526825, 10.555775 ], [ -66.527817, 10.556052 ], [ -66.528694, 10.556330 ], [ -66.529434, 10.556582 ], [ -66.530037, 10.556700 ], [ -66.530571, 10.556838 ], [ -66.531723, 10.557002 ], [ -66.532371, 10.557072 ], [ -66.532906, 10.557073 ], [ -66.534020, 10.557006 ], [ -66.534744, 10.556700 ], [ -66.534943, 10.556618 ], [ -66.535683, 10.556138 ], [ -66.536034, 10.555818 ], [ -66.536385, 10.555291 ], [ -66.536713, 10.554694 ], [ -66.537064, 10.553938 ], [ -66.537338, 10.553250 ], [ -66.537643, 10.552608 ], [ -66.538086, 10.551968 ], [ -66.538269, 10.551532 ], [ -66.539200, 10.550616 ], [ -66.540176, 10.550504 ], [ -66.541397, 10.550438 ], [ -66.542809, 10.550441 ], [ -66.543945, 10.550650 ], [ -66.545097, 10.550903 ], [ -66.545563, 10.551021 ], [ -66.546554, 10.551091 ], [ -66.548500, 10.550911 ], [ -66.549080, 10.550797 ], [ -66.549965, 10.550593 ], [ -66.550842, 10.550481 ], [ -66.551605, 10.550550 ], [ -66.552711, 10.550713 ], [ -66.553665, 10.551083 ], [ -66.554634, 10.551360 ], [ -66.555183, 10.551568 ], [ -66.556251, 10.552006 ], [ -66.556846, 10.552214 ], [ -66.557495, 10.552260 ], [ -66.558052, 10.552468 ], [ -66.558632, 10.552630 ], [ -66.559303, 10.552655 ], [ -66.560135, 10.552587 ], [ -66.561203, 10.552521 ], [ -66.562447, 10.552592 ], [ -66.563118, 10.552594 ], [ -66.564140, 10.552619 ], [ -66.565086, 10.552667 ], [ -66.565758, 10.552875 ], [ -66.567047, 10.553176 ], [ -66.567604, 10.553314 ], [ -66.569107, 10.553845 ], [ -66.569824, 10.554167 ], [ -66.570702, 10.554537 ], [ -66.571236, 10.554835 ], [ -66.571854, 10.555226 ], [ -66.572868, 10.555941 ], [ -66.574951, 10.556977 ], [ -66.575852, 10.557392 ], [ -66.576935, 10.557624 ], [ -66.577911, 10.557900 ], [ -66.578766, 10.558086 ], [ -66.579804, 10.558547 ], [ -66.580475, 10.558915 ], [ -66.581024, 10.559399 ], [ -66.582275, 10.559951 ], [ -66.582809, 10.560022 ], [ -66.583984, 10.559565 ], [ -66.584663, 10.559406 ], [ -66.585564, 10.558995 ], [ -66.586372, 10.558445 ], [ -66.586998, 10.558171 ], [ -66.588921, 10.557648 ], [ -66.589737, 10.557581 ], [ -66.590408, 10.557399 ], [ -66.591217, 10.556711 ], [ -66.591865, 10.556025 ], [ -66.592262, 10.555314 ], [ -66.592728, 10.554787 ], [ -66.593102, 10.554306 ], [ -66.593636, 10.553757 ], [ -66.594216, 10.553275 ], [ -66.594635, 10.552840 ], [ -66.595444, 10.552176 ], [ -66.597183, 10.550986 ], [ -66.597786, 10.550644 ], [ -66.598396, 10.550255 ], [ -66.599251, 10.549638 ], [ -66.599670, 10.549271 ], [ -66.600090, 10.548882 ], [ -66.600555, 10.548263 ], [ -66.600998, 10.547185 ], [ -66.601440, 10.546062 ], [ -66.601395, 10.545305 ], [ -66.601585, 10.544273 ], [ -66.601776, 10.543056 ], [ -66.602608, 10.542531 ], [ -66.603165, 10.542233 ], [ -66.603630, 10.542097 ], [ -66.604530, 10.541985 ], [ -66.605202, 10.541756 ], [ -66.605583, 10.541817 ], [ -66.605919, 10.541871 ], [ -66.606499, 10.542079 ], [ -66.607353, 10.542608 ], [ -66.608253, 10.543322 ], [ -66.608666, 10.543621 ], [ -66.609268, 10.543966 ], [ -66.610351, 10.544404 ], [ -66.611443, 10.544727 ], [ -66.612068, 10.544660 ], [ -66.612923, 10.544753 ], [ -66.613571, 10.544961 ], [ -66.614952, 10.545331 ], [ -66.615646, 10.545240 ], [ -66.616203, 10.544920 ], [ -66.616898, 10.544738 ], [ -66.617806, 10.544647 ], [ -66.618339, 10.544649 ], [ -66.619400, 10.544720 ], [ -66.620392, 10.544814 ], [ -66.622177, 10.544450 ], [ -66.622803, 10.544336 ], [ -66.623360, 10.544291 ], [ -66.624031, 10.544086 ], [ -66.624748, 10.543950 ], [ -66.625534, 10.544134 ], [ -66.626068, 10.544296 ], [ -66.626739, 10.544458 ], [ -66.627289, 10.544574 ], [ -66.628120, 10.544643 ], [ -66.628769, 10.544645 ], [ -66.629601, 10.544876 ], [ -66.630531, 10.544992 ], [ -66.631409, 10.545017 ], [ -66.632103, 10.545064 ], [ -66.632866, 10.545066 ], [ -66.633697, 10.545158 ], [ -66.634529, 10.545207 ], [ -66.635178, 10.545208 ], [ -66.635643, 10.545095 ], [ -66.636688, 10.544774 ], [ -66.637703, 10.544387 ], [ -66.639328, 10.543563 ], [ -66.639748, 10.543265 ], [ -66.640602, 10.542809 ], [ -66.641205, 10.542442 ], [ -66.641739, 10.541939 ], [ -66.642876, 10.541735 ], [ -66.643867, 10.541781 ], [ -66.644653, 10.541944 ], [ -66.645119, 10.542220 ], [ -66.645973, 10.542749 ], [ -66.646736, 10.543324 ], [ -66.647705, 10.543854 ], [ -66.648880, 10.544567 ], [ -66.649826, 10.545073 ], [ -66.650703, 10.545671 ], [ -66.651718, 10.546202 ], [ -66.652992, 10.546548 ], [ -66.653870, 10.546687 ], [ -66.654541, 10.546642 ], [ -66.655327, 10.546529 ], [ -66.656624, 10.546371 ], [ -66.657623, 10.546372 ], [ -66.658363, 10.546144 ], [ -66.659149, 10.546030 ], [ -66.660217, 10.546102 ], [ -66.661415, 10.546447 ], [ -66.661903, 10.546564 ], [ -66.663101, 10.546635 ], [ -66.664169, 10.546567 ], [ -66.665741, 10.546524 ], [ -66.667297, 10.546389 ], [ -66.668083, 10.546368 ], [ -66.668961, 10.546369 ], [ -66.669838, 10.546462 ], [ -66.671226, 10.546372 ], [ -66.671738, 10.546419 ], [ -66.672455, 10.546536 ], [ -66.673103, 10.546628 ], [ -66.673721, 10.546883 ], [ -66.674278, 10.547135 ], [ -66.674904, 10.548078 ], [ -66.675751, 10.548996 ], [ -66.676239, 10.549250 ], [ -66.677185, 10.549320 ], [ -66.677902, 10.549322 ], [ -66.679245, 10.549139 ], [ -66.680267, 10.548912 ], [ -66.681496, 10.548662 ], [ -66.682633, 10.548343 ], [ -66.684296, 10.548024 ], [ -66.685432, 10.548095 ], [ -66.686264, 10.548119 ], [ -66.687004, 10.547936 ], [ -66.687607, 10.547824 ], [ -66.688187, 10.547687 ], [ -66.689293, 10.547597 ], [ -66.689781, 10.547505 ], [ -66.690613, 10.547369 ], [ -66.691406, 10.547394 ], [ -66.692330, 10.547395 ], [ -66.693398, 10.547030 ], [ -66.694504, 10.546711 ], [ -66.695664, 10.546803 ], [ -66.696541, 10.546966 ], [ -66.697815, 10.546784 ], [ -66.698395, 10.546763 ], [ -66.699158, 10.546512 ], [ -66.699898, 10.546374 ], [ -66.700684, 10.546262 ], [ -66.701523, 10.546171 ], [ -66.704674, 10.545143 ], [ -66.705917, 10.544709 ], [ -66.707428, 10.544368 ], [ -66.708260, 10.543933 ], [ -66.708816, 10.543774 ], [ -66.709763, 10.543637 ], [ -66.710533, 10.543547 ], [ -66.712265, 10.543756 ], [ -66.713349, 10.544147 ], [ -66.714531, 10.545205 ], [ -66.715500, 10.546147 ], [ -66.716393, 10.547273 ], [ -66.716812, 10.547665 ], [ -66.718102, 10.548584 ], [ -66.719116, 10.549343 ], [ -66.719513, 10.549687 ], [ -66.720459, 10.550584 ], [ -66.721176, 10.550722 ], [ -66.722656, 10.550839 ], [ -66.723854, 10.551094 ], [ -66.725105, 10.551256 ], [ -66.726074, 10.551327 ], [ -66.726799, 10.551420 ], [ -66.727722, 10.551466 ], [ -66.729477, 10.551103 ], [ -66.730522, 10.550369 ], [ -66.730987, 10.550026 ], [ -66.731918, 10.549523 ], [ -66.732681, 10.549272 ], [ -66.733513, 10.548860 ], [ -66.734322, 10.548815 ], [ -66.734947, 10.548977 ], [ -66.735642, 10.549414 ], [ -66.736542, 10.549575 ], [ -66.737610, 10.549807 ], [ -66.738442, 10.549946 ], [ -66.739296, 10.549764 ], [ -66.739761, 10.549489 ], [ -66.740547, 10.549100 ], [ -66.741363, 10.548619 ], [ -66.742172, 10.548001 ], [ -66.743004, 10.547405 ], [ -66.743706, 10.546948 ], [ -66.744118, 10.546581 ], [ -66.744888, 10.546123 ], [ -66.746048, 10.545414 ], [ -66.747040, 10.545116 ], [ -66.747948, 10.545004 ], [ -66.748894, 10.544935 ], [ -66.750191, 10.545374 ], [ -66.750877, 10.545719 ], [ -66.751686, 10.546042 ], [ -66.752495, 10.546387 ], [ -66.753929, 10.546870 ], [ -66.754715, 10.547262 ], [ -66.755157, 10.547561 ], [ -66.756424, 10.548160 ], [ -66.757881, 10.548644 ], [ -66.759361, 10.548944 ], [ -66.760124, 10.549174 ], [ -66.761215, 10.549635 ], [ -66.762047, 10.550187 ], [ -66.762573, 10.550394 ], [ -66.763222, 10.550326 ], [ -66.764030, 10.550328 ], [ -66.765541, 10.550513 ], [ -66.766136, 10.550468 ], [ -66.767227, 10.550424 ], [ -66.767921, 10.550333 ], [ -66.769150, 10.550381 ], [ -66.770096, 10.550427 ], [ -66.770744, 10.550520 ], [ -66.771645, 10.550522 ], [ -66.772339, 10.550430 ], [ -66.773102, 10.550386 ], [ -66.773682, 10.550341 ], [ -66.774353, 10.550342 ], [ -66.775139, 10.550458 ], [ -66.775650, 10.550505 ], [ -66.776276, 10.550505 ], [ -66.777107, 10.550232 ], [ -66.777321, 10.550071 ], [ -66.777504, 10.549933 ], [ -66.778641, 10.549201 ], [ -66.779594, 10.548376 ], [ -66.780258, 10.547420 ], [ -66.781471, 10.546726 ], [ -66.782700, 10.546773 ], [ -66.783691, 10.546683 ], [ -66.784760, 10.546064 ], [ -66.786934, 10.545953 ], [ -66.787628, 10.545519 ], [ -66.788254, 10.545082 ], [ -66.789253, 10.544258 ], [ -66.790321, 10.543709 ], [ -66.790901, 10.543710 ], [ -66.791824, 10.544169 ], [ -66.792335, 10.544354 ], [ -66.793281, 10.544517 ], [ -66.793861, 10.544586 ], [ -66.795570, 10.544588 ], [ -66.796425, 10.544497 ], [ -66.796959, 10.544429 ], [ -66.797539, 10.544292 ], [ -66.798279, 10.544041 ], [ -66.798630, 10.543942 ], [ -66.798927, 10.543858 ], [ -66.800751, 10.545008 ], [ -66.801727, 10.545743 ], [ -66.802765, 10.546295 ], [ -66.803299, 10.546295 ], [ -66.804848, 10.546459 ], [ -66.805565, 10.546712 ], [ -66.806252, 10.547080 ], [ -66.807228, 10.547425 ], [ -66.808335, 10.548093 ], [ -66.809029, 10.548438 ], [ -66.810738, 10.549564 ], [ -66.811172, 10.549955 ], [ -66.811981, 10.550622 ], [ -66.813004, 10.551333 ], [ -66.814064, 10.551909 ], [ -66.814735, 10.552140 ], [ -66.815292, 10.552140 ], [ -66.815910, 10.552073 ], [ -66.816681, 10.551820 ], [ -66.817329, 10.551707 ], [ -66.819916, 10.551641 ], [ -66.820541, 10.551642 ], [ -66.821495, 10.551689 ], [ -66.822487, 10.551691 ], [ -66.823853, 10.551532 ], [ -66.825356, 10.551097 ], [ -66.826004, 10.550891 ], [ -66.827118, 10.550640 ], [ -66.827629, 10.549953 ], [ -66.828697, 10.549357 ], [ -66.829880, 10.548830 ], [ -66.830879, 10.548189 ], [ -66.831474, 10.548075 ], [ -66.832588, 10.548077 ], [ -66.833305, 10.548055 ], [ -66.834114, 10.547643 ], [ -66.834534, 10.547414 ], [ -66.835182, 10.546841 ], [ -66.835602, 10.546519 ], [ -66.836418, 10.545626 ], [ -66.836762, 10.545282 ], [ -66.837463, 10.544159 ], [ -66.838066, 10.543516 ], [ -66.838364, 10.543013 ], [ -66.838989, 10.542439 ], [ -66.839874, 10.542028 ], [ -66.841309, 10.542074 ], [ -66.842346, 10.542236 ], [ -66.842903, 10.542031 ], [ -66.843346, 10.541779 ], [ -66.843994, 10.541595 ], [ -66.844459, 10.541138 ], [ -66.845566, 10.541000 ], [ -66.846336, 10.540957 ], [ -66.847374, 10.541003 ], [ -66.848480, 10.541739 ], [ -66.849640, 10.542795 ], [ -66.851418, 10.544014 ], [ -66.852409, 10.544910 ], [ -66.853722, 10.546059 ], [ -66.854210, 10.546588 ], [ -66.855430, 10.547483 ], [ -66.856239, 10.548059 ], [ -66.857071, 10.548840 ], [ -66.857948, 10.549827 ], [ -66.858711, 10.550539 ], [ -66.859863, 10.551504 ], [ -66.860214, 10.551918 ], [ -66.860947, 10.552516 ], [ -66.862084, 10.553044 ], [ -66.862793, 10.553362 ], [ -66.863472, 10.553666 ], [ -66.864044, 10.553850 ], [ -66.865120, 10.553867 ], [ -66.865578, 10.553875 ], [ -66.866104, 10.553830 ], [ -66.866753, 10.553279 ], [ -66.868218, 10.552111 ], [ -66.869240, 10.551080 ], [ -66.869636, 10.550644 ], [ -66.870400, 10.549772 ], [ -66.871139, 10.549085 ], [ -66.871696, 10.548717 ], [ -66.872047, 10.548350 ], [ -66.872925, 10.547549 ], [ -66.874527, 10.546794 ], [ -66.875641, 10.546175 ], [ -66.876335, 10.545831 ], [ -66.876587, 10.545724 ], [ -66.877357, 10.545396 ], [ -66.878632, 10.545146 ], [ -66.879181, 10.545146 ], [ -66.879997, 10.545490 ], [ -66.881355, 10.545974 ], [ -66.882492, 10.546319 ], [ -66.882973, 10.546481 ], [ -66.884941, 10.546850 ], [ -66.885956, 10.547265 ], [ -66.886788, 10.547838 ], [ -66.887299, 10.548345 ], [ -66.887947, 10.549194 ], [ -66.888428, 10.549723 ], [ -66.889122, 10.550114 ], [ -66.890251, 10.551056 ], [ -66.890946, 10.551492 ], [ -66.891640, 10.551860 ], [ -66.892609, 10.552297 ], [ -66.893700, 10.552665 ], [ -66.894646, 10.552827 ], [ -66.895386, 10.553012 ], [ -66.896309, 10.553195 ], [ -66.897072, 10.553380 ], [ -66.898346, 10.553794 ], [ -66.899460, 10.554048 ], [ -66.900154, 10.554255 ], [ -66.900398, 10.554319 ], [ -66.901306, 10.554555 ], [ -66.902397, 10.554739 ], [ -66.903252, 10.554901 ], [ -66.903831, 10.554948 ], [ -66.904426, 10.555062 ], [ -66.905312, 10.555151 ], [ -66.905586, 10.555179 ], [ -66.906883, 10.555478 ], [ -66.908043, 10.555479 ], [ -66.910515, 10.555665 ], [ -66.911308, 10.555697 ], [ -66.911674, 10.555713 ], [ -66.912758, 10.555828 ], [ -66.913872, 10.556196 ], [ -66.914955, 10.556404 ], [ -66.916183, 10.556519 ], [ -66.916969, 10.556313 ], [ -66.917686, 10.555970 ], [ -66.918198, 10.555787 ], [ -66.919426, 10.555444 ], [ -66.920120, 10.555169 ], [ -66.920814, 10.554780 ], [ -66.921722, 10.554390 ], [ -66.923042, 10.553589 ], [ -66.923668, 10.553497 ], [ -66.924713, 10.553177 ], [ -66.925682, 10.552902 ], [ -66.926704, 10.552674 ], [ -66.927177, 10.552675 ], [ -66.927673, 10.552674 ], [ -66.928620, 10.552630 ], [ -66.930107, 10.552586 ], [ -66.930801, 10.552632 ], [ -66.932022, 10.552380 ], [ -66.932770, 10.552313 ], [ -66.933487, 10.552197 ], [ -66.934341, 10.551740 ], [ -66.935661, 10.550708 ], [ -66.936150, 10.550502 ], [ -66.936501, 10.549837 ], [ -66.937287, 10.548827 ], [ -66.938355, 10.548439 ], [ -66.939186, 10.548210 ], [ -66.939674, 10.548027 ], [ -66.941299, 10.547477 ], [ -66.942085, 10.547249 ], [ -66.943359, 10.546676 ], [ -66.944282, 10.546401 ], [ -66.944954, 10.546035 ], [ -66.946182, 10.545600 ], [ -66.946671, 10.545370 ], [ -66.948105, 10.545302 ], [ -66.948708, 10.545509 ], [ -66.949768, 10.545671 ], [ -66.951111, 10.545925 ], [ -66.951668, 10.546108 ], [ -66.952614, 10.546844 ], [ -66.953720, 10.547809 ], [ -66.954186, 10.548429 ], [ -66.954674, 10.548843 ], [ -66.956124, 10.549602 ], [ -66.956657, 10.549922 ], [ -66.957558, 10.550543 ], [ -66.958717, 10.551462 ], [ -66.959549, 10.551670 ], [ -66.960404, 10.551992 ], [ -66.961327, 10.552462 ], [ -66.962578, 10.553118 ], [ -66.963570, 10.553715 ], [ -66.964218, 10.553716 ], [ -66.964844, 10.553625 ], [ -66.964966, 10.553568 ] ] ] } }

]
}
